{
"type": "FeatureCollection",
"errorDescr": "Incorrect <b>name</b>-tag value",
"features": [
{"type":"Feature","id":"24447139","properties":{"josm":"w24447139","name":"Конюшенный переулок","nameuk":"Конюшений провулок"},"geometry":{"type":"Point","coordinates":[36.27859,49.9852]}},
{"type":"Feature","id":"27226642","properties":{"josm":"w27226642","name":"Вільгельма Габсбурга провулок","nameuk":"Богданова провулок"},"geometry":{"type":"Point","coordinates":[30.72219,46.48834]}},
{"type":"Feature","id":"27879731","properties":{"josm":"w27879731","name":"Рибака вулиця","nameuk":"7-та Лінія вулиця"},"geometry":{"type":"Point","coordinates":[30.25685,50.53155]}},
{"type":"Feature","id":"28472062","properties":{"josm":"w28472062","name":"Щёлкина улица","nameuk":"Щолкіна вулиця"},"geometry":{"type":"Point","coordinates":[35.8234,45.42967]}},
{"type":"Feature","id":"28486564","properties":{"josm":"w28486564","name":"аллея №2","nameuk":"алея №1"},"geometry":{"type":"Point","coordinates":[35.82056,45.43056]}},
{"type":"Feature","id":"30173400","properties":{"josm":"w30173400","name":"Лозовеньківський проспект","nameuk":"Окружна дорога"},"geometry":{"type":"Point","coordinates":[36.18047,50.05362]}},
{"type":"Feature","id":"31236417","properties":{"josm":"w31236417","name":"Мінський проспект","nameuk":"Мінське шосе"},"geometry":{"type":"Point","coordinates":[30.45012,50.52189]}},
{"type":"Feature","id":"31526975","properties":{"josm":"w31526975","name":"Институтская улица","nameuk":"Інститутська вулиця"},"geometry":{"type":"Point","coordinates":[30.70065,46.37733]}},
{"type":"Feature","id":"31668656","properties":{"josm":"w31668656","name":"СТ Світанок","nameuk":"Садове товариство Світанок"},"geometry":{"type":"Point","coordinates":[30.64553,50.2625]}},
{"type":"Feature","id":"33684480","properties":{"josm":"w33684480","name":"Руслана Плоходька вулиця","nameuk":"Роберта Ейдемана вулиця"},"geometry":{"type":"Point","coordinates":[36.35081,49.99435]}},
{"type":"Feature","id":"34203129","properties":{"josm":"w34203129","name":"Копиловська вулиця","nameuk":"Першої Маївки вулиця"},"geometry":{"type":"Point","coordinates":[36.2085,50.00102]}},
{"type":"Feature","id":"34572897","properties":{"josm":"w34572897","name":"провулок Шарівський","nameuk":"Спортивна вулиця"},"geometry":{"type":"Point","coordinates":[36.157,49.9808]}},
{"type":"Feature","id":"34679755","properties":{"josm":"w34679755","name":"Терихівська вулиця","nameuk":"Скорохода вулиця"},"geometry":{"type":"Point","coordinates":[36.18191,49.99515]}},
{"type":"Feature","id":"34838730","properties":{"josm":"w34838730","name":"Сільський в’їзд","nameuk":"Колгоспний в’їзд"},"geometry":{"type":"Point","coordinates":[36.30029,50.05467]}},
{"type":"Feature","id":"34839561","properties":{"josm":"w34839561","name":"Стара Озерянка вулиця","nameuk":"Аральська вулиця"},"geometry":{"type":"Point","coordinates":[36.33507,50.04493]}},
{"type":"Feature","id":"34959238","properties":{"josm":"w34959238","name":"Центральна  вулиця","nameuk":"Центральна вулиця"},"geometry":{"type":"Point","coordinates":[39.01228,48.9526]}},
{"type":"Feature","id":"35478586","properties":{"josm":"w35478586","name":"Козацкий переулок","nameuk":"Будівельна вулиця"},"geometry":{"type":"Point","coordinates":[33.64273,47.56743]}},
{"type":"Feature","id":"37159697","properties":{"josm":"w37159697","name":"Петропавлівська вулиця","nameuk":"Будівельна вулиця"},"geometry":{"type":"Point","coordinates":[33.6425,47.56962]}},
{"type":"Feature","id":"37779384","properties":{"josm":"w37779384","name":"Максима Залізняка вулиця","nameuk":"Залізняка вулиця"},"geometry":{"type":"Point","coordinates":[27.00502,49.44969]}},
{"type":"Feature","id":"38651170","properties":{"josm":"w38651170","name":"Осипенка провулок","nameuk":"Гризодубової провулок"},"geometry":{"type":"Point","coordinates":[32.05238,49.42141]}},
{"type":"Feature","id":"39010342","properties":{"josm":"w39010342","name":"Йосипа Лапушкіна провулок","nameuk":"Йосипа Лапушкіна  провулок"},"geometry":{"type":"Point","coordinates":[26.97853,49.42943]}},
{"type":"Feature","id":"39273509","properties":{"josm":"w39273509","name":"Розы Люксембург улица","nameuk":"Рози Люксембург вулиця"},"geometry":{"type":"Point","coordinates":[33.54284,44.60959]}},
{"type":"Feature","id":"42136271","properties":{"josm":"w42136271","name":"Олександрова вулиця","nameuk":"Александрова вулиця"},"geometry":{"type":"Point","coordinates":[34.98766,48.47013]}},
{"type":"Feature","id":"42897767","properties":{"josm":"w42897767","name":"Кирова вулиця","nameuk":"Кірова вулиця"},"geometry":{"type":"Point","coordinates":[38.23497,49.05216]}},
{"type":"Feature","id":"42976870","properties":{"josm":"w42976870","name":"Щёлкина улица","nameuk":"Щолкіна вулиця"},"geometry":{"type":"Point","coordinates":[35.82644,45.4275]}},
{"type":"Feature","id":"47048416","properties":{"josm":"w47048416","name":"Политехническая","nameuk":"Політехнічна"},"geometry":{"type":"Point","coordinates":[35.01113,48.44677]}},
{"type":"Feature","id":"48965826","properties":{"josm":"w48965826","name":"Миколаєнка вулиця","nameuk":"Ніколенка вулиця"},"geometry":{"type":"Point","coordinates":[34.58876,48.50663]}},
{"type":"Feature","id":"51065627","properties":{"josm":"w51065627","name":"1-й Матеріальний провулок","nameuk":"Вапняна вулиця"},"geometry":{"type":"Point","coordinates":[30.70716,46.50029]}},
{"type":"Feature","id":"55901653","properties":{"josm":"w55901653","name":"Гетьманська вулиця","nameuk":"Гетьмманська вулиця"},"geometry":{"type":"Point","coordinates":[30.10697,49.79768]}},
{"type":"Feature","id":"55937137","properties":{"josm":"w55937137","name":"Михаила Грушевского вулиця","nameuk":"Михайла Грушевського вулиця"},"geometry":{"type":"Point","coordinates":[30.91296,47.20873]}},
{"type":"Feature","id":"55951610","properties":{"josm":"w55951610","name":"Парникова вулиця","nameuk":"Марії Демченко вулиця"},"geometry":{"type":"Point","coordinates":[30.71204,46.37254]}},
{"type":"Feature","id":"55953779","properties":{"josm":"w55953779","name":"Леонтовича вулиця","nameuk":"Бєлінського вулиця"},"geometry":{"type":"Point","coordinates":[30.7534,46.47087]}},
{"type":"Feature","id":"59538663","properties":{"josm":"w59538663","name":"Військової Слави вулиця","nameuk":"Військової Cлави вулиця"},"geometry":{"type":"Point","coordinates":[30.35292,46.18931]}},
{"type":"Feature","id":"66862263","properties":{"josm":"w66862263","name":"Січових Стрільців вулиця","nameuk":"Січових стрільців вулиця"},"geometry":{"type":"Point","coordinates":[30.12827,49.77635]}},
{"type":"Feature","id":"69253381","properties":{"josm":"w69253381","name":"Волошкова вулиця","nameuk":"Василькова вулиця"},"geometry":{"type":"Point","coordinates":[34.75931,50.93465]}},
{"type":"Feature","id":"70994006","properties":{"josm":"w70994006","name":"проспект Ленина (Кипарисовая аллея)","nameuk":"Леніна проспект"},"geometry":{"type":"Point","coordinates":[33.99971,44.40354]}},
{"type":"Feature","id":"72917210","properties":{"josm":"w72917210","name":"Самарская улица","nameuk":"Самарська вулиця"},"geometry":{"type":"Point","coordinates":[35.33112,48.65183]}},
{"type":"Feature","id":"73906002","properties":{"josm":"w73906002","name":"Киевская улица","nameuk":"Київська вулиця"},"geometry":{"type":"Point","coordinates":[30.17747,49.96471]}},
{"type":"Feature","id":"79817063","properties":{"josm":"w79817063","name":"П. Морозова вулиця","nameuk":"П.Морозова вулиця"},"geometry":{"type":"Point","coordinates":[37.29987,48.13853]}},
{"type":"Feature","id":"81204334","properties":{"josm":"w81204334","name":"Морозова вулиця","nameuk":"Степана Мазурця вулиця"},"geometry":{"type":"Point","coordinates":[25.36354,50.74829]}},
{"type":"Feature","id":"83296600","properties":{"josm":"w83296600","name":"Chonhar Bridge","nameuk":"Чонгарський міст"},"geometry":{"type":"Point","coordinates":[34.55253,45.98796]}},
{"type":"Feature","id":"83296600","properties":{"josm":"w83296600","name":"Chonhar Bridge","nameuk":"Чонгарський міст"},"geometry":{"type":"Point","coordinates":[34.55253,45.98796]}},
{"type":"Feature","id":"86267548","properties":{"josm":"w86267548","name":"Парусная улица","nameuk":"Вітрильна вулиця"},"geometry":{"type":"Point","coordinates":[36.76818,46.7618]}},
{"type":"Feature","id":"86463430","properties":{"josm":"w86463430","name":"Терихівська вулиця","nameuk":"Скорохода вулиця"},"geometry":{"type":"Point","coordinates":[36.18417,49.99402]}},
{"type":"Feature","id":"86859486","properties":{"josm":"w86859486","name":"Колійний провулок","nameuk":"Піщаний провулок"},"geometry":{"type":"Point","coordinates":[36.24212,49.95272]}},
{"type":"Feature","id":"89810208","properties":{"josm":"w89810208","name":"Железнодорожная улица","nameuk":"Залізнична вулиця"},"geometry":{"type":"Point","coordinates":[36.02846,49.88685]}},
{"type":"Feature","id":"89934669","properties":{"josm":"w89934669","name":"Короленко улица","nameuk":"Короленка вулиця"},"geometry":{"type":"Point","coordinates":[36.00226,49.89041]}},
{"type":"Feature","id":"91432460","properties":{"josm":"w91432460","name":"Мистецький провулок","nameuk":"провулок Мистецький"},"geometry":{"type":"Point","coordinates":[36.1715,50.05642]}},
{"type":"Feature","id":"91432474","properties":{"josm":"w91432474","name":"Центральная улица","nameuk":"Центральна вулиця"},"geometry":{"type":"Point","coordinates":[36.15973,50.06541]}},
{"type":"Feature","id":"97820519","properties":{"josm":"w97820519","name":"Стадіонний в’їзд","nameuk":"Жовтня в’їзд"},"geometry":{"type":"Point","coordinates":[36.29918,49.87312]}},
{"type":"Feature","id":"100977886","properties":{"josm":"w100977886","name":"1-го Травня провулок","nameuk":"1-го Травня вулиця"},"geometry":{"type":"Point","coordinates":[30.43631,50.61751]}},
{"type":"Feature","id":"101248203","properties":{"josm":"w101248203","name":"улица Вели Ибрагимова","nameuk":"Велі Ібрагімова вулиця"},"geometry":{"type":"Point","coordinates":[33.87062,44.74095]}},
{"type":"Feature","id":"102327272","properties":{"josm":"w102327272","name":"Руслана Плоходька вулиця","nameuk":"Роберта Ейдемана вулиця"},"geometry":{"type":"Point","coordinates":[36.35014,49.99119]}},
{"type":"Feature","id":"105136347","properties":{"josm":"w105136347","name":"Улица Шевченко","nameuk":"Шевченка вулиця"},"geometry":{"type":"Point","coordinates":[33.65878,45.78435]}},
{"type":"Feature","id":"105136357","properties":{"josm":"w105136357","name":"улица 50 лет октября","nameuk":"50 років Жовтня вулиця"},"geometry":{"type":"Point","coordinates":[33.65905,45.78842]}},
{"type":"Feature","id":"107972062","properties":{"josm":"w107972062","name":"улица Ашик Умера","nameuk":"Ашик Умера вулиця"},"geometry":{"type":"Point","coordinates":[34.9942,44.8484]}},
{"type":"Feature","id":"108625861","properties":{"josm":"w108625861","name":"1-й Матеріальний провулок","nameuk":"Східчастий провулок"},"geometry":{"type":"Point","coordinates":[30.70693,46.49905]}},
{"type":"Feature","id":"109082705","properties":{"josm":"w109082705","name":"Аркадійська алея","nameuk":"Аркадійська Алея"},"geometry":{"type":"Point","coordinates":[30.76401,46.42951]}},
{"type":"Feature","id":"109582437","properties":{"josm":"w109582437","name":"Восьмого Березня вулиця","nameuk":"Першої Маївки вулиця"},"geometry":{"type":"Point","coordinates":[36.20954,49.99917]}},
{"type":"Feature","id":"109639929","properties":{"josm":"w109639929","name":"Майкопская улица","nameuk":"Майкопська вулиця"},"geometry":{"type":"Point","coordinates":[33.44268,47.98064]}},
{"type":"Feature","id":"109649215","properties":{"josm":"w109649215","name":"Лазурная улица","nameuk":"Лазурна вулиця"},"geometry":{"type":"Point","coordinates":[35.08642,48.54402]}},
{"type":"Feature","id":"109649224","properties":{"josm":"w109649224","name":"Мелітопольська вулиця","nameuk":"Мелітопольска вулиця"},"geometry":{"type":"Point","coordinates":[35.08211,48.5421]}},
{"type":"Feature","id":"109696343","properties":{"josm":"w109696343","name":"Вишневая долина улица","nameuk":"Вишнева долина вулиця"},"geometry":{"type":"Point","coordinates":[35.08682,48.545]}},
{"type":"Feature","id":"110359328","properties":{"josm":"w110359328","name":"улица Игнатенко","nameuk":"Графський проїзд"},"geometry":{"type":"Point","coordinates":[34.17048,44.4968]}},
{"type":"Feature","id":"111495707","properties":{"josm":"w111495707","name":"улица Победы","nameuk":"Перемоги вулиця"},"geometry":{"type":"Point","coordinates":[35.94695,49.74011]}},
{"type":"Feature","id":"112774818","properties":{"josm":"w112774818","name":"вул. Виговського","nameuk":"Георгія Жукова вулиця"},"geometry":{"type":"Point","coordinates":[25.84106,48.34943]}},
{"type":"Feature","id":"113812430","properties":{"josm":"w113812430","name":"Скіфська вулиця","nameuk":"Скыфська вулиця"},"geometry":{"type":"Point","coordinates":[35.35432,46.8648]}},
{"type":"Feature","id":"115448945","properties":{"josm":"w115448945","name":"Козацької слави вулиця","nameuk":"Октябрьська вулиця"},"geometry":{"type":"Point","coordinates":[34.38243,48.54329]}},
{"type":"Feature","id":"115449359","properties":{"josm":"w115449359","name":"Святковий провулок","nameuk":"Дзержинського провулок"},"geometry":{"type":"Point","coordinates":[34.38062,48.54787]}},
{"type":"Feature","id":"115853377","properties":{"josm":"w115853377","name":"Свято-Ильинская улица","nameuk":"Свято-Іллінська вулиця"},"geometry":{"type":"Point","coordinates":[36.11609,49.8865]}},
{"type":"Feature","id":"116715034","properties":{"josm":"w116715034","name":"Крупской улица","nameuk":"Крупської вулиця"},"geometry":{"type":"Point","coordinates":[37.40326,47.72019]}},
{"type":"Feature","id":"117894084","properties":{"josm":"w117894084","name":"Тиха вулиця","nameuk":"Чапаєва вулиця"},"geometry":{"type":"Point","coordinates":[34.36311,48.56021]}},
{"type":"Feature","id":"117903194","properties":{"josm":"w117903194","name":"Кленовий провулок","nameuk":"Суворова вулиця"},"geometry":{"type":"Point","coordinates":[34.36991,48.55028]}},
{"type":"Feature","id":"118077204","properties":{"josm":"w118077204","name":"Нова вулиця","nameuk":"Гагаріна вулиця"},"geometry":{"type":"Point","coordinates":[35.94533,48.49189]}},
{"type":"Feature","id":"119438320","properties":{"josm":"w119438320","name":"Ясна (Тельмана) вулиця","nameuk":"Тельмана вулиця"},"geometry":{"type":"Point","coordinates":[36.11802,49.9046]}},
{"type":"Feature","id":"120410063","properties":{"josm":"w120410063","name":"Вантажная","nameuk":"Вантажна"},"geometry":{"type":"Point","coordinates":[33.44574,47.87765]}},
{"type":"Feature","id":"120547614","properties":{"josm":"w120547614","name":"переулок Степной","nameuk":"Черняховського провулок"},"geometry":{"type":"Point","coordinates":[36.57243,45.35198]}},
{"type":"Feature","id":"121111950","properties":{"josm":"w121111950","name":"Садовая улица","nameuk":"Садова вулиця"},"geometry":{"type":"Point","coordinates":[33.13074,48.66295]}},
{"type":"Feature","id":"121115896","properties":{"josm":"w121115896","name":"Павла Дыбенко переулок","nameuk":"Павла Дибенко провулок"},"geometry":{"type":"Point","coordinates":[33.12336,48.65868]}},
{"type":"Feature","id":"121117051","properties":{"josm":"w121117051","name":"Кам'яна вулиця","nameuk":"Сакко і Ванцетті вулиця; Мурманський провулок"},"geometry":{"type":"Point","coordinates":[33.10396,48.6882]}},
{"type":"Feature","id":"121117054","properties":{"josm":"w121117054","name":"Покровська площа","nameuk":"Кірова площа"},"geometry":{"type":"Point","coordinates":[33.11173,48.68637]}},
{"type":"Feature","id":"122239240","properties":{"josm":"w122239240","name":"вулиця Квіткова","nameuk":"Квіткова вулиця"},"geometry":{"type":"Point","coordinates":[35.36462,46.37542]}},
{"type":"Feature","id":"122239241","properties":{"josm":"w122239241","name":"вулиця Центральна","nameuk":"Центральна вулиця"},"geometry":{"type":"Point","coordinates":[35.36831,46.37649]}},
{"type":"Feature","id":"122239242","properties":{"josm":"w122239242","name":"вулиця Сонячна","nameuk":"Сонячна вулиця"},"geometry":{"type":"Point","coordinates":[35.36248,46.37582]}},
{"type":"Feature","id":"123897034","properties":{"josm":"w123897034","name":"вулиця Українська","nameuk":"Українська вулиця"},"geometry":{"type":"Point","coordinates":[35.33035,46.36752]}},
{"type":"Feature","id":"123897076","properties":{"josm":"w123897076","name":"вулиця Затишна","nameuk":"Затишна вулиця"},"geometry":{"type":"Point","coordinates":[35.36209,46.36994]}},
{"type":"Feature","id":"124197826","properties":{"josm":"w124197826","name":"Мар'ївський провулок","nameuk":"Котовського провулок"},"geometry":{"type":"Point","coordinates":[33.10451,48.68994]}},
{"type":"Feature","id":"126367724","properties":{"josm":"w126367724","name":"площадь Молодежная","nameuk":"Молодіжна площа"},"geometry":{"type":"Point","coordinates":[34.97419,44.84584]}},
{"type":"Feature","id":"126776302","properties":{"josm":"w126776302","name":"Затишна вулиця","nameuk":"Будьонного вулиця"},"geometry":{"type":"Point","coordinates":[30.44948,48.38732]}},
{"type":"Feature","id":"126795076","properties":{"josm":"w126795076","name":"Ринкова вулиця","nameuk":"50 років Жовтня вулиця"},"geometry":{"type":"Point","coordinates":[30.46033,48.38488]}},
{"type":"Feature","id":"126814427","properties":{"josm":"w126814427","name":"Дачная улица","nameuk":"Дачна вулиця"},"geometry":{"type":"Point","coordinates":[35.17132,50.05888]}},
{"type":"Feature","id":"126814431","properties":{"josm":"w126814431","name":"Дачный переулок","nameuk":"Дачний провулок"},"geometry":{"type":"Point","coordinates":[35.17014,50.06091]}},
{"type":"Feature","id":"126825856","properties":{"josm":"w126825856","name":"Заводская улица","nameuk":"Заводська вулиця"},"geometry":{"type":"Point","coordinates":[35.13886,50.05948]}},
{"type":"Feature","id":"126825964","properties":{"josm":"w126825964","name":"Яровая улица","nameuk":"Ярова вулиця"},"geometry":{"type":"Point","coordinates":[35.15482,50.06347]}},
{"type":"Feature","id":"126826008","properties":{"josm":"w126826008","name":"Садовый переулок","nameuk":"Садовий провулок"},"geometry":{"type":"Point","coordinates":[35.16489,50.08061]}},
{"type":"Feature","id":"126998341","properties":{"josm":"w126998341","name":"Пірогова вулиця","nameuk":"Пирогова вулиця"},"geometry":{"type":"Point","coordinates":[30.4728,48.38245]}},
{"type":"Feature","id":"127023719","properties":{"josm":"w127023719","name":"Друга Галатовка вулиця","nameuk":"Коротка вулиця"},"geometry":{"type":"Point","coordinates":[34.32508,48.6511]}},
{"type":"Feature","id":"127023720","properties":{"josm":"w127023720","name":"Сапеляка Владики вулиця","nameuk":"Щорса вулиця"},"geometry":{"type":"Point","coordinates":[34.33404,48.64821]}},
{"type":"Feature","id":"127025642","properties":{"josm":"w127025642","name":"Перша Галатовка вулиця","nameuk":"1-а Галатовка вулиця"},"geometry":{"type":"Point","coordinates":[34.32464,48.65001]}},
{"type":"Feature","id":"127025646","properties":{"josm":"w127025646","name":"Матросова перевулок","nameuk":"Матросова вулиця"},"geometry":{"type":"Point","coordinates":[34.32135,48.65105]}},
{"type":"Feature","id":"127025648","properties":{"josm":"w127025648","name":"Дніпровська вулиця","nameuk":"Крупської вулиця"},"geometry":{"type":"Point","coordinates":[34.32211,48.65072]}},
{"type":"Feature","id":"127029389","properties":{"josm":"w127029389","name":"Лісна вулиця","nameuk":"Лісова вулиця"},"geometry":{"type":"Point","coordinates":[34.31856,48.65183]}},
{"type":"Feature","id":"127029392","properties":{"josm":"w127029392","name":"Лісна вулиця","nameuk":"Лісова вулиця"},"geometry":{"type":"Point","coordinates":[34.31896,48.65281]}},
{"type":"Feature","id":"127029394","properties":{"josm":"w127029394","name":"Львівська вулиця","nameuk":"Морська вулиця"},"geometry":{"type":"Point","coordinates":[34.31745,48.6512]}},
{"type":"Feature","id":"127029395","properties":{"josm":"w127029395","name":"Верхньодніпровська  вулиця","nameuk":"Харківська вулиця"},"geometry":{"type":"Point","coordinates":[34.31755,48.65011]}},
{"type":"Feature","id":"127029399","properties":{"josm":"w127029399","name":"Галатовський провулок","nameuk":"Базарна вулиця"},"geometry":{"type":"Point","coordinates":[34.32656,48.65062]}},
{"type":"Feature","id":"127628449","properties":{"josm":"w127628449","name":"Богдана Хмельницького вулиця","nameuk":"Леніна вулиця"},"geometry":{"type":"Point","coordinates":[34.37441,48.55064]}},
{"type":"Feature","id":"127628645","properties":{"josm":"w127628645","name":"Ново Степова вулиця","nameuk":"Степова вулиця"},"geometry":{"type":"Point","coordinates":[34.37564,48.54783]}},
{"type":"Feature","id":"127632636","properties":{"josm":"w127632636","name":"Яблунева вулиця","nameuk":"Островського вулиця"},"geometry":{"type":"Point","coordinates":[34.36637,48.55798]}},
{"type":"Feature","id":"127670675","properties":{"josm":"w127670675","name":"Горяна вулиця","nameuk":"Горянська вулиця"},"geometry":{"type":"Point","coordinates":[34.31496,48.54109]}},
{"type":"Feature","id":"128505290","properties":{"josm":"w128505290","name":"Юрія Паращука вулиця","nameuk":"Івана Минайленка вулиця"},"geometry":{"type":"Point","coordinates":[36.18228,49.97959]}},
{"type":"Feature","id":"128976367","properties":{"josm":"w128976367","name":"Коцюбинского","nameuk":"Коцюбинського"},"geometry":{"type":"Point","coordinates":[32.73893,46.68151]}},
{"type":"Feature","id":"129253771","properties":{"josm":"w129253771","name":"Щербицкого площадь","nameuk":"Щербицького площа"},"geometry":{"type":"Point","coordinates":[34.33472,48.65432]}},
{"type":"Feature","id":"129253772","properties":{"josm":"w129253772","name":"Щербицкого площадь","nameuk":"Щербицького площа"},"geometry":{"type":"Point","coordinates":[34.33457,48.65417]}},
{"type":"Feature","id":"129425302","properties":{"josm":"w129425302","name":"Низовый провулок","nameuk":"Низовий провулок"},"geometry":{"type":"Point","coordinates":[36.13779,49.88082]}},
{"type":"Feature","id":"130659531","properties":{"josm":"w130659531","name":"Чапаєва вулиця","nameuk":"Козацька вулиця"},"geometry":{"type":"Point","coordinates":[33.69316,47.66994]}},
{"type":"Feature","id":"130659533","properties":{"josm":"w130659533","name":"Покровська вулиця","nameuk":"Дзержинського вулиця"},"geometry":{"type":"Point","coordinates":[33.70349,47.66748]}},
{"type":"Feature","id":"131606761","properties":{"josm":"w131606761","name":"Юрія Паращука вулиця","nameuk":"Івана Минайленка вулиця"},"geometry":{"type":"Point","coordinates":[36.18464,49.97802]}},
{"type":"Feature","id":"131654327","properties":{"josm":"w131654327","name":"Ігоря Сікорського вулиця","nameuk":"Сікорського вулиця"},"geometry":{"type":"Point","coordinates":[38.41302,48.91841]}},
{"type":"Feature","id":"131860045","properties":{"josm":"w131860045","name":"Соняшникова вулиця","nameuk":"Балашівська вулиця"},"geometry":{"type":"Point","coordinates":[38.36614,48.94955]}},
{"type":"Feature","id":"132610731","properties":{"josm":"w132610731","name":"Соборна вулиця","nameuk":"Леніна вулиця"},"geometry":{"type":"Point","coordinates":[35.28171,47.44308]}},
{"type":"Feature","id":"133293770","properties":{"josm":"w133293770","name":"2-й Ногайський провулок","nameuk":"2-й Цюрупи провулок"},"geometry":{"type":"Point","coordinates":[35.35341,46.86817]}},
{"type":"Feature","id":"133382117","properties":{"josm":"w133382117","name":"Максима Залізняка вулиця","nameuk":"Залізняка вулиця"},"geometry":{"type":"Point","coordinates":[27.00499,49.45473]}},
{"type":"Feature","id":"134690294","properties":{"josm":"w134690294","name":"Соняшникова вулиця","nameuk":"Балашівська вулиця"},"geometry":{"type":"Point","coordinates":[38.36765,48.94872]}},
{"type":"Feature","id":"134702843","properties":{"josm":"w134702843","name":"проспект Святих Кирила та Мефодія","nameuk":"Димитрова проспект"},"geometry":{"type":"Point","coordinates":[32.55967,46.64553]}},
{"type":"Feature","id":"135196195","properties":{"josm":"w135196195","name":"Мостова вулиця","nameuk":"Слизкоухого вулиця"},"geometry":{"type":"Point","coordinates":[34.31372,48.65874]}},
{"type":"Feature","id":"135271027","properties":{"josm":"w135271027","name":"Пилипа Орлика вулиця","nameuk":"Пилипа Орликавулиця"},"geometry":{"type":"Point","coordinates":[32.0189,46.87978]}},
{"type":"Feature","id":"135271047","properties":{"josm":"w135271047","name":"вулиця Приозерна","nameuk":"Приозерна вулиця"},"geometry":{"type":"Point","coordinates":[32.02785,46.87666]}},
{"type":"Feature","id":"135295734","properties":{"josm":"w135295734","name":"вул. Юрія Корлюка","nameuk":"Приовражний провулок"},"geometry":{"type":"Point","coordinates":[33.12905,48.69983]}},
{"type":"Feature","id":"135322524","properties":{"josm":"w135322524","name":"Железнякова улица","nameuk":"Желєзнякова вулиця"},"geometry":{"type":"Point","coordinates":[33.12985,48.65854]}},
{"type":"Feature","id":"135330252","properties":{"josm":"w135330252","name":"Чекистов улица","nameuk":"Чекістів вулиця"},"geometry":{"type":"Point","coordinates":[33.12755,48.66179]}},
{"type":"Feature","id":"135368792","properties":{"josm":"w135368792","name":"Провулок Механізаторів","nameuk":"Механізаторів провулок"},"geometry":{"type":"Point","coordinates":[38.37161,48.62111]}},
{"type":"Feature","id":"135370934","properties":{"josm":"w135370934","name":"Провулок Ломоносова","nameuk":"Ломоносова провулок"},"geometry":{"type":"Point","coordinates":[38.38333,48.62065]}},
{"type":"Feature","id":"135370939","properties":{"josm":"w135370939","name":"Провулок Ломоносова","nameuk":"Ломоносова провулок"},"geometry":{"type":"Point","coordinates":[38.37815,48.62633]}},
{"type":"Feature","id":"135372709","properties":{"josm":"w135372709","name":"Провулок Лермонтова","nameuk":"Лермонтова провулок"},"geometry":{"type":"Point","coordinates":[38.3839,48.62324]}},
{"type":"Feature","id":"135377404","properties":{"josm":"w135377404","name":"Вільховий провулок","nameuk":"Ольховий провулок"},"geometry":{"type":"Point","coordinates":[38.4062,48.63237]}},
{"type":"Feature","id":"135377407","properties":{"josm":"w135377407","name":"Провулок Фадєєва","nameuk":"Фадєєва провулок"},"geometry":{"type":"Point","coordinates":[38.40807,48.63151]}},
{"type":"Feature","id":"135459424","properties":{"josm":"w135459424","name":"Шевченка  вулиця","nameuk":"XVIII З’їзду ВЛКСМ вулиця"},"geometry":{"type":"Point","coordinates":[34.29753,48.64708]}},
{"type":"Feature","id":"135459425","properties":{"josm":"w135459425","name":"Шкільний провулок","nameuk":"Гоголя вулиця"},"geometry":{"type":"Point","coordinates":[34.29189,48.65689]}},
{"type":"Feature","id":"135459437","properties":{"josm":"w135459437","name":"Калинова вулиця","nameuk":"Калініна вулиця"},"geometry":{"type":"Point","coordinates":[34.3008,48.65532]}},
{"type":"Feature","id":"135562180","properties":{"josm":"w135562180","name":"Пушкинская улица","nameuk":"Пушкінська вулиця"},"geometry":{"type":"Point","coordinates":[37.60352,49.72006]}},
{"type":"Feature","id":"135565454","properties":{"josm":"w135565454","name":"Мицкевича переулок","nameuk":"Міцкевича провулок"},"geometry":{"type":"Point","coordinates":[37.59977,49.71286]}},
{"type":"Feature","id":"135567259","properties":{"josm":"w135567259","name":"Визволення площа","nameuk":"Перемоги площа"},"geometry":{"type":"Point","coordinates":[33.09979,48.67355]}},
{"type":"Feature","id":"135662056","properties":{"josm":"w135662056","name":"Школьный переулок","nameuk":"Шкільний провулок"},"geometry":{"type":"Point","coordinates":[37.61071,49.70115]}},
{"type":"Feature","id":"135684332","properties":{"josm":"w135684332","name":"Івана Піянзіна провулок","nameuk":"Пиянзина провулок; Марини Раскової провулок"},"geometry":{"type":"Point","coordinates":[33.10861,48.6898]}},
{"type":"Feature","id":"135726171","properties":{"josm":"w135726171","name":"проспект Азовський","nameuk":"Азовський проспект"},"geometry":{"type":"Point","coordinates":[35.33436,46.36866]}},
{"type":"Feature","id":"135902900","properties":{"josm":"w135902900","name":"Миру  вулиця","nameuk":"Жукова вулиця"},"geometry":{"type":"Point","coordinates":[34.28037,48.64859]}},
{"type":"Feature","id":"135902901","properties":{"josm":"w135902901","name":"Остапа Вишні  вулиця","nameuk":"Остапа Вишні вулиця"},"geometry":{"type":"Point","coordinates":[34.29187,48.6483]}},
{"type":"Feature","id":"135902902","properties":{"josm":"w135902902","name":"І. Франка вулиця","nameuk":"Лермонтова вулиця"},"geometry":{"type":"Point","coordinates":[34.28383,48.64963]}},
{"type":"Feature","id":"135902905","properties":{"josm":"w135902905","name":"В. Листопад вулиця","nameuk":"Нечуя-Левицького вулиця"},"geometry":{"type":"Point","coordinates":[34.28796,48.64997]}},
{"type":"Feature","id":"136161443","properties":{"josm":"w136161443","name":"Давыдовский переулок","nameuk":"Давидовський провулок"},"geometry":{"type":"Point","coordinates":[33.44114,47.97955]}},
{"type":"Feature","id":"136240219","properties":{"josm":"w136240219","name":"Носаль Є. І. вулиця","nameuk":"Носаль вулиця"},"geometry":{"type":"Point","coordinates":[35.29509,47.37318]}},
{"type":"Feature","id":"136431840","properties":{"josm":"w136431840","name":"Суворова вулиця","nameuk":"Суворова улица"},"geometry":{"type":"Point","coordinates":[31.39337,48.98856]}},
{"type":"Feature","id":"137649831","properties":{"josm":"w137649831","name":"Ушакова вулиця","nameuk":"вулиця"},"geometry":{"type":"Point","coordinates":[31.37609,49.00237]}},
{"type":"Feature","id":"138099205","properties":{"josm":"w138099205","name":"Бурковського вулиця","nameuk":"Костюка вулиця"},"geometry":{"type":"Point","coordinates":[27.64529,50.5706]}},
{"type":"Feature","id":"138268585","properties":{"josm":"w138268585","name":"Золочівський шлях вулиця","nameuk":"вулиця Золочівський шлях"},"geometry":{"type":"Point","coordinates":[36.1087,50.11373]}},
{"type":"Feature","id":"140011166","properties":{"josm":"w140011166","name":"Прокоф’єва вулиця","nameuk":"вулиця Прокоф’єва"},"geometry":{"type":"Point","coordinates":[37.52743,47.93439]}},
{"type":"Feature","id":"142456424","properties":{"josm":"w142456424","name":"Переможний провулок","nameuk":"Привокзальна вулиця"},"geometry":{"type":"Point","coordinates":[34.37849,48.55418]}},
{"type":"Feature","id":"142456425","properties":{"josm":"w142456425","name":"Ново Степова вулиця","nameuk":"Степова вулиця"},"geometry":{"type":"Point","coordinates":[34.38265,48.54513]}},
{"type":"Feature","id":"142492646","properties":{"josm":"w142492646","name":"Ковальська вулиця","nameuk":"Ковальская вулиця"},"geometry":{"type":"Point","coordinates":[30.12116,49.79564]}},
{"type":"Feature","id":"142698265","properties":{"josm":"w142698265","name":"проспект Азовський","nameuk":"Азовський проспект"},"geometry":{"type":"Point","coordinates":[35.34291,46.3677]}},
{"type":"Feature","id":"143769863","properties":{"josm":"w143769863","name":"улица Челеби-Джихана","nameuk":"Челебі Джихана вулиця"},"geometry":{"type":"Point","coordinates":[33.62767,45.1429]}},
{"type":"Feature","id":"143769886","properties":{"josm":"w143769886","name":"улица Челеби-Джихана","nameuk":"Челебі Джихана вулиця"},"geometry":{"type":"Point","coordinates":[33.62805,45.1397]}},
{"type":"Feature","id":"144378197","properties":{"josm":"w144378197","name":"Олега Кошевого улица","nameuk":"Олега Кошового вулиця"},"geometry":{"type":"Point","coordinates":[33.5119,47.91929]}},
{"type":"Feature","id":"144715236","properties":{"josm":"w144715236","name":"Центральна вулиця","nameuk":"Радянська вулиця"},"geometry":{"type":"Point","coordinates":[32.01365,49.94229]}},
{"type":"Feature","id":"148112944","properties":{"josm":"w148112944","name":"Щорса вулиця (стор. пос.Дослідної ст.), Степова ввулиця (стор. с.Вигода)","nameuk":"Щорса вулиця"},"geometry":{"type":"Point","coordinates":[30.39234,46.60883]}},
{"type":"Feature","id":"150590079","properties":{"josm":"w150590079","name":"Степана Васильченка вулиця","nameuk":"Васильченка вулиця"},"geometry":{"type":"Point","coordinates":[29.88227,50.08828]}},
{"type":"Feature","id":"152442075","properties":{"josm":"w152442075","name":"Украинская улица","nameuk":"Українська вулиця"},"geometry":{"type":"Point","coordinates":[33.51329,47.92042]}},
{"type":"Feature","id":"153102269","properties":{"josm":"w153102269","name":"Княгини Ольги вулиця","nameuk":"Княгині Ольги вулиця"},"geometry":{"type":"Point","coordinates":[30.91734,47.20161]}},
{"type":"Feature","id":"156597060","properties":{"josm":"w156597060","name":"Лозовеньківський проспект","nameuk":"Окружна дорога"},"geometry":{"type":"Point","coordinates":[36.23382,50.08989]}},
{"type":"Feature","id":"158073060","properties":{"josm":"w158073060","name":"Красна вулиця","nameuk":"Червона вулиця"},"geometry":{"type":"Point","coordinates":[34.24092,48.48096]}},
{"type":"Feature","id":"158361441","properties":{"josm":"w158361441","name":"Ювілейна вулця","nameuk":"Ювілейна вулиця"},"geometry":{"type":"Point","coordinates":[36.39359,49.98839]}},
{"type":"Feature","id":"158668353","properties":{"josm":"w158668353","name":"Спортивна вулиця","nameuk":"Терешкової вулиця"},"geometry":{"type":"Point","coordinates":[34.41477,48.5932]}},
{"type":"Feature","id":"159003481","properties":{"josm":"w159003481","name":"Центральна вулиця","nameuk":"Радянська вулиця"},"geometry":{"type":"Point","coordinates":[34.04209,52.17603]}},
{"type":"Feature","id":"159185132","properties":{"josm":"w159185132","name":"Перший Соборний провулок","nameuk":"Островського провулок"},"geometry":{"type":"Point","coordinates":[34.25,48.48107]}},
{"type":"Feature","id":"159233378","properties":{"josm":"w159233378","name":"С. Ряженцева вулиця","nameuk":"Тельмана вулиця"},"geometry":{"type":"Point","coordinates":[34.23589,48.48915]}},
{"type":"Feature","id":"159233410","properties":{"josm":"w159233410","name":"Перший Кутузова провулок","nameuk":"Кутузова провулок"},"geometry":{"type":"Point","coordinates":[34.22277,48.4781]}},
{"type":"Feature","id":"159757635","properties":{"josm":"w159757635","name":"Леніна вулиця","nameuk":"Центральна вулиця"},"geometry":{"type":"Point","coordinates":[38.98928,48.9594]}},
{"type":"Feature","id":"159757640","properties":{"josm":"w159757640","name":"Солнечная вулиця","nameuk":"Радянська вулиця"},"geometry":{"type":"Point","coordinates":[38.98693,48.96287]}},
{"type":"Feature","id":"159813362","properties":{"josm":"w159813362","name":"Лозовеньківський проспект","nameuk":"Окружна дорога"},"geometry":{"type":"Point","coordinates":[36.26322,50.1021]}},
{"type":"Feature","id":"159813363","properties":{"josm":"w159813363","name":"Лозовеньківський проспект","nameuk":"Окружна дорога"},"geometry":{"type":"Point","coordinates":[36.26582,50.1019]}},
{"type":"Feature","id":"159815292","properties":{"josm":"w159815292","name":"Лозовеньківський проспект","nameuk":"Окружна дорога"},"geometry":{"type":"Point","coordinates":[36.1968,50.064]}},
{"type":"Feature","id":"159815293","properties":{"josm":"w159815293","name":"Лозовеньківський проспект","nameuk":"Окружна дорога"},"geometry":{"type":"Point","coordinates":[36.18376,50.05506]}},
{"type":"Feature","id":"159815294","properties":{"josm":"w159815294","name":"Лозовеньківський проспект","nameuk":"Окружна дорога"},"geometry":{"type":"Point","coordinates":[36.18202,50.05423]}},
{"type":"Feature","id":"162361872","properties":{"josm":"w162361872","name":"Полтавська (Радевича) вулиця","nameuk":"Полтавська вулиця"},"geometry":{"type":"Point","coordinates":[35.09855,49.44263]}},
{"type":"Feature","id":"162361874","properties":{"josm":"w162361874","name":"Полтавська (Радевича) вулиця","nameuk":"Полтавська вулиця"},"geometry":{"type":"Point","coordinates":[35.13742,49.45199]}},
{"type":"Feature","id":"163066256","properties":{"josm":"w163066256","name":"Ковніра вулиця","nameuk":"Ковнира вулиця"},"geometry":{"type":"Point","coordinates":[30.31941,50.20437]}},
{"type":"Feature","id":"163200999","properties":{"josm":"w163200999","name":"вулиця Садова","nameuk":"Садова вулиця"},"geometry":{"type":"Point","coordinates":[36.95385,49.49147]}},
{"type":"Feature","id":"163270423","properties":{"josm":"w163270423","name":"Чехова вулиця","nameuk":"Чєхова вулиця"},"geometry":{"type":"Point","coordinates":[34.53187,49.82097]}},
{"type":"Feature","id":"164462286","properties":{"josm":"w164462286","name":"Кіреєва вулиця","nameuk":"Киреєва вулиця"},"geometry":{"type":"Point","coordinates":[34.23117,51.19022]}},
{"type":"Feature","id":"166101332","properties":{"josm":"w166101332","name":"с","nameuk":"Олега Горбачова вулиця"},"geometry":{"type":"Point","coordinates":[36.50506,49.82576]}},
{"type":"Feature","id":"166898225","properties":{"josm":"w166898225","name":"вулиця Українська","nameuk":"вулиця Украинская"},"geometry":{"type":"Point","coordinates":[26.48708,48.5003]}},
{"type":"Feature","id":"166898262","properties":{"josm":"w166898262","name":"вулиця Чужбинського","nameuk":"вулиця Чужбинского"},"geometry":{"type":"Point","coordinates":[26.47344,48.50633]}},
{"type":"Feature","id":"167991159","properties":{"josm":"w167991159","name":"Садова провулок чи вулиця?","nameuk":"Садова провулок"},"geometry":{"type":"Point","coordinates":[33.17754,49.59085]}},
{"type":"Feature","id":"168200938","properties":{"josm":"w168200938","name":"Міліонна вулиця","nameuk":"Паризької Комуни вулиця"},"geometry":{"type":"Point","coordinates":[32.67938,49.074]}},
{"type":"Feature","id":"168201046","properties":{"josm":"w168201046","name":"Фундукліївська вулиця","nameuk":"Горького вулиця"},"geometry":{"type":"Point","coordinates":[32.66987,49.06871]}},
{"type":"Feature","id":"168727056","properties":{"josm":"w168727056","name":"улица Валиуллы Муртазаева","nameuk":"Валіулли Муртазаєва вулиця"},"geometry":{"type":"Point","coordinates":[33.8648,44.73721]}},
{"type":"Feature","id":"168908093","properties":{"josm":"w168908093","name":"Героїв-підпільників вулиця","nameuk":"Ленінської Іскри вулиця"},"geometry":{"type":"Point","coordinates":[37.54655,48.59575]}},
{"type":"Feature","id":"169398903","properties":{"josm":"w169398903","name":"Калинова вулиця","nameuk":"Калініна вулиця"},"geometry":{"type":"Point","coordinates":[34.27899,48.48223]}},
{"type":"Feature","id":"169566576","properties":{"josm":"w169566576","name":"Лип'янська вулиця","nameuk":"Ганни Дмитришиної вулиця"},"geometry":{"type":"Point","coordinates":[26.02729,50.55492]}},
{"type":"Feature","id":"169888187","properties":{"josm":"w169888187","name":"улица Академика Сахарова","nameuk":"Академіка Сахарова вулиця"},"geometry":{"type":"Point","coordinates":[34.98807,44.83924]}},
{"type":"Feature","id":"171264907","properties":{"josm":"w171264907","name":"Приозёрная улица","nameuk":"Приозерна вулиця"},"geometry":{"type":"Point","coordinates":[36.04156,49.97504]}},
{"type":"Feature","id":"171815253","properties":{"josm":"w171815253","name":"Спортивная улица","nameuk":"Спортивна вулиця"},"geometry":{"type":"Point","coordinates":[35.26739,50.76973]}},
{"type":"Feature","id":"171815270","properties":{"josm":"w171815270","name":"Виноградная улица","nameuk":"Виноградна вулиця"},"geometry":{"type":"Point","coordinates":[35.25723,50.7766]}},
{"type":"Feature","id":"171815273","properties":{"josm":"w171815273","name":"Вишнёвая улица","nameuk":"Вишнева вулиця"},"geometry":{"type":"Point","coordinates":[35.26527,50.77579]}},
{"type":"Feature","id":"171815291","properties":{"josm":"w171815291","name":"Мичурина переулок","nameuk":"Мічуріна провулок"},"geometry":{"type":"Point","coordinates":[35.27446,50.76824]}},
{"type":"Feature","id":"171816215","properties":{"josm":"w171816215","name":"Шевченко улица","nameuk":"Шевченка вулиця"},"geometry":{"type":"Point","coordinates":[35.25667,50.7623]}},
{"type":"Feature","id":"171816217","properties":{"josm":"w171816217","name":"Московская улица","nameuk":"Московська вулиця"},"geometry":{"type":"Point","coordinates":[35.26177,50.76566]}},
{"type":"Feature","id":"171823483","properties":{"josm":"w171823483","name":"Гоголя улица","nameuk":"Гоголя вулиця"},"geometry":{"type":"Point","coordinates":[35.2693,50.79598]}},
{"type":"Feature","id":"171823491","properties":{"josm":"w171823491","name":"Луговой переулок","nameuk":"Луговий провулок"},"geometry":{"type":"Point","coordinates":[35.26114,50.78817]}},
{"type":"Feature","id":"172302821","properties":{"josm":"w172302821","name":"Безхлібна (Гребінківська) вулиця","nameuk":"Безхлібна вулиця"},"geometry":{"type":"Point","coordinates":[32.44026,50.10391]}},
{"type":"Feature","id":"174964536","properties":{"josm":"w174964536","name":"Михайла Петренко вулиця","nameuk":"Череватенка вулиця"},"geometry":{"type":"Point","coordinates":[37.15552,48.29623]}},
{"type":"Feature","id":"175083114","properties":{"josm":"w175083114","name":"Рози Люксембург переулок","nameuk":"Рози Люксембург вулиця"},"geometry":{"type":"Point","coordinates":[38.56009,48.85844]}},
{"type":"Feature","id":"175324967","properties":{"josm":"w175324967","name":"Залізнична вулиця","nameuk":"Шота вулиця"},"geometry":{"type":"Point","coordinates":[37.16357,48.28704]}},
{"type":"Feature","id":"175802142","properties":{"josm":"w175802142","name":"Залізнична вулиця","nameuk":"Шота вулиця"},"geometry":{"type":"Point","coordinates":[37.15583,48.28773]}},
{"type":"Feature","id":"175802156","properties":{"josm":"w175802156","name":"Залізнична вулиця","nameuk":"Шота вулиця"},"geometry":{"type":"Point","coordinates":[37.17156,48.28534]}},
{"type":"Feature","id":"175802157","properties":{"josm":"w175802157","name":"Залізнична вулиця","nameuk":"Шота вулиця"},"geometry":{"type":"Point","coordinates":[37.14862,48.2872]}},
{"type":"Feature","id":"176943955","properties":{"josm":"w176943955","name":"Благодатна вулиця","nameuk":"Димитрова вулиця"},"geometry":{"type":"Point","coordinates":[34.04869,52.18431]}},
{"type":"Feature","id":"176943957","properties":{"josm":"w176943957","name":"Ластовецкая вулиця","nameuk":"Дзержинського вулиця"},"geometry":{"type":"Point","coordinates":[34.05042,52.18522]}},
{"type":"Feature","id":"176943959","properties":{"josm":"w176943959","name":"Нікольська вулиця","nameuk":"Чапаєва вулиця"},"geometry":{"type":"Point","coordinates":[34.04593,52.18341]}},
{"type":"Feature","id":"176943966","properties":{"josm":"w176943966","name":"Козацька вулиця","nameuk":"Червоноармійська вулиця"},"geometry":{"type":"Point","coordinates":[34.04628,52.18968]}},
{"type":"Feature","id":"179600204","properties":{"josm":"w179600204","name":"Центральна вулиця","nameuk":"Радянська вулиця"},"geometry":{"type":"Point","coordinates":[34.04241,52.18866]}},
{"type":"Feature","id":"179600206","properties":{"josm":"w179600206","name":"Козацька вулиця","nameuk":"Червоноармійська вулиця"},"geometry":{"type":"Point","coordinates":[34.05414,52.18891]}},
{"type":"Feature","id":"179918769","properties":{"josm":"w179918769","name":"Садова вулиця","nameuk":"Вишнева вулиця"},"geometry":{"type":"Point","coordinates":[38.51072,48.90954]}},
{"type":"Feature","id":"179950530","properties":{"josm":"w179950530","name":"Червоноткацька вулиця","nameuk":"Мурманська вулиця"},"geometry":{"type":"Point","coordinates":[30.64891,50.45989]}},
{"type":"Feature","id":"180746422","properties":{"josm":"w180746422","name":"Черняховского вулиця","nameuk":"Черняховского  вулиця"},"geometry":{"type":"Point","coordinates":[39.3698,48.55142]}},
{"type":"Feature","id":"181264317","properties":{"josm":"w181264317","name":"Ванди Біневськой провулок","nameuk":"Джерельний провулок"},"geometry":{"type":"Point","coordinates":[36.35264,49.97136]}},
{"type":"Feature","id":"181990532","properties":{"josm":"w181990532","name":"Центральна вулиця","nameuk":"Леніна вулиця"},"geometry":{"type":"Point","coordinates":[34.24676,48.48633]}},
{"type":"Feature","id":"181990533","properties":{"josm":"w181990533","name":"Другий Дніпровський провулок","nameuk":"Радянський провулок"},"geometry":{"type":"Point","coordinates":[34.25054,48.48603]}},
{"type":"Feature","id":"182437817","properties":{"josm":"w182437817","name":"Василя Симона вулиця","nameuk":"Горького вулиця"},"geometry":{"type":"Point","coordinates":[34.92215,50.3261]}},
{"type":"Feature","id":"182494602","properties":{"josm":"w182494602","name":"Яблуневий провулок","nameuk":"Ворошилова провулок"},"geometry":{"type":"Point","coordinates":[34.92,50.29817]}},
{"type":"Feature","id":"183118737","properties":{"josm":"w183118737","name":"Банкова вулиця","nameuk":"Мічуріна вулиця"},"geometry":{"type":"Point","coordinates":[34.03288,52.19018]}},
{"type":"Feature","id":"183125914","properties":{"josm":"w183125914","name":"Грушевського вулиця","nameuk":"Вишнева вулиця"},"geometry":{"type":"Point","coordinates":[25.99277,51.30871]}},
{"type":"Feature","id":"184190875","properties":{"josm":"w184190875","name":"вулиця Фрідріха Енгельса","nameuk":"Фрідріха Енгельса вулиця"},"geometry":{"type":"Point","coordinates":[37.78177,48.38535]}},
{"type":"Feature","id":"185704730","properties":{"josm":"w185704730","name":"вулиця Кірова","nameuk":"Кірова вулиця"},"geometry":{"type":"Point","coordinates":[37.77964,48.39805]}},
{"type":"Feature","id":"185704739","properties":{"josm":"w185704739","name":"вулиця Леніна","nameuk":"Леніна вулиця"},"geometry":{"type":"Point","coordinates":[37.77869,48.39893]}},
{"type":"Feature","id":"185704742","properties":{"josm":"w185704742","name":"вулиця Клименка","nameuk":"Клименко вулиця"},"geometry":{"type":"Point","coordinates":[37.79917,48.37144]}},
{"type":"Feature","id":"185704746","properties":{"josm":"w185704746","name":"вулиця Миру","nameuk":"Миру вулиця"},"geometry":{"type":"Point","coordinates":[37.77606,48.39748]}},
{"type":"Feature","id":"186657835","properties":{"josm":"w186657835","name":"Харьковская улица","nameuk":"Харківська вулиця"},"geometry":{"type":"Point","coordinates":[35.31543,50.0421]}},
{"type":"Feature","id":"186724962","properties":{"josm":"w186724962","name":"Набережная улица","nameuk":"Набережна вулиця"},"geometry":{"type":"Point","coordinates":[36.40827,49.80359]}},
{"type":"Feature","id":"186785546","properties":{"josm":"w186785546","name":"Вишнёвая улица","nameuk":"Вишнева вулиця"},"geometry":{"type":"Point","coordinates":[35.06766,50.0982]}},
{"type":"Feature","id":"186868471","properties":{"josm":"w186868471","name":"Хорив переулок","nameuk":"Хорiв провулок"},"geometry":{"type":"Point","coordinates":[35.03541,47.89072]}},
{"type":"Feature","id":"187676811","properties":{"josm":"w187676811","name":"вулиця Ярослава Мудрого","nameuk":"Ярослава Мудрого вулиця"},"geometry":{"type":"Point","coordinates":[30.82809,49.86602]}},
{"type":"Feature","id":"187676829","properties":{"josm":"w187676829","name":"Свято-Троїцька вулиця","nameuk":"Свердлова вулиця"},"geometry":{"type":"Point","coordinates":[30.82145,49.86261]}},
{"type":"Feature","id":"187837752","properties":{"josm":"w187837752","name":"провулок Феодосія Камінського","nameuk":"Феодосія Камінського провулок"},"geometry":{"type":"Point","coordinates":[32.01585,46.85223]}},
{"type":"Feature","id":"188287368","properties":{"josm":"w188287368","name":"ул. 2-я Сортоиспытательная","nameuk":"вул. 2-я Сортовипробувальна"},"geometry":{"type":"Point","coordinates":[30.56051,46.45858]}},
{"type":"Feature","id":"190136595","properties":{"josm":"w190136595","name":"Зелёная улица","nameuk":"Зелена вулиця"},"geometry":{"type":"Point","coordinates":[33.72595,47.5499]}},
{"type":"Feature","id":"191085576","properties":{"josm":"w191085576","name":"Центральна вулиця","nameuk":"Центральнаа вулиця"},"geometry":{"type":"Point","coordinates":[32.01667,49.92818]}},
{"type":"Feature","id":"191388692","properties":{"josm":"w191388692","name":"провулок Марии Рыбальченко","nameuk":"провулок Марії Рибальченко"},"geometry":{"type":"Point","coordinates":[32.00744,46.84577]}},
{"type":"Feature","id":"191560037","properties":{"josm":"w191560037","name":"Вознесенская улица","nameuk":"Вознесенська вулиця"},"geometry":{"type":"Point","coordinates":[35.75693,46.83415]}},
{"type":"Feature","id":"191903789","properties":{"josm":"w191903789","name":"Казацкая улица","nameuk":"Козацька вулиця"},"geometry":{"type":"Point","coordinates":[30.06618,46.84475]}},
{"type":"Feature","id":"192486384","properties":{"josm":"w192486384","name":"Садовая улица","nameuk":"Садова вулиця"},"geometry":{"type":"Point","coordinates":[35.16215,50.0744]}},
{"type":"Feature","id":"193152518","properties":{"josm":"w193152518","name":"вулиця Чернівецька","nameuk":"вулиця Черновицкая"},"geometry":{"type":"Point","coordinates":[26.48016,48.49575]}},
{"type":"Feature","id":"197524354","properties":{"josm":"w197524354","name":"Партизанська вулиця","nameuk":"Паотизанська вулиця"},"geometry":{"type":"Point","coordinates":[35.7416,47.14884]}},
{"type":"Feature","id":"197842111","properties":{"josm":"w197842111","name":"Каразинский переулок","nameuk":"Каразінський провулок"},"geometry":{"type":"Point","coordinates":[35.15899,50.08413]}},
{"type":"Feature","id":"198189137","properties":{"josm":"w198189137","name":"Річковий провулок","nameuk":"Річкоий провулок"},"geometry":{"type":"Point","coordinates":[38.36889,48.63769]}},
{"type":"Feature","id":"202566699","properties":{"josm":"w202566699","name":"Юбилейная улица","nameuk":"Ювілейна вулиця"},"geometry":{"type":"Point","coordinates":[35.13134,50.07163]}},
{"type":"Feature","id":"202614969","properties":{"josm":"w202614969","name":"333-ї Дивізії вулиця","nameuk":"333-ї дивізії вулиця"},"geometry":{"type":"Point","coordinates":[35.50627,48.33054]}},
{"type":"Feature","id":"202938490","properties":{"josm":"w202938490","name":"Об’їздна вулиця","nameuk":"Об’їзна вулиця"},"geometry":{"type":"Point","coordinates":[33.72367,46.99864]}},
{"type":"Feature","id":"205945702","properties":{"josm":"w205945702","name":"Юрьевская улица","nameuk":"Юр'ївська вулиця"},"geometry":{"type":"Point","coordinates":[35.07184,50.09531]}},
{"type":"Feature","id":"205955545","properties":{"josm":"w205955545","name":"улица Маламута Муссы","nameuk":"Маламута Мусси вулиця"},"geometry":{"type":"Point","coordinates":[35.19483,45.18246]}},
{"type":"Feature","id":"205960358","properties":{"josm":"w205960358","name":"вул. Чарівна (Чапаєва)","nameuk":"Чапаєва вулиця"},"geometry":{"type":"Point","coordinates":[34.91332,47.00758]}},
{"type":"Feature","id":"205976975","properties":{"josm":"w205976975","name":"Мелитопольская улица","nameuk":"Мелітопольська вулиця"},"geometry":{"type":"Point","coordinates":[35.68639,46.9102]}},
{"type":"Feature","id":"205977007","properties":{"josm":"w205977007","name":"Почтовая улица","nameuk":"Поштова вулиця"},"geometry":{"type":"Point","coordinates":[35.76127,46.82988]}},
{"type":"Feature","id":"206663187","properties":{"josm":"w206663187","name":"Светлый переулок","nameuk":"Бузкова вулиця"},"geometry":{"type":"Point","coordinates":[33.34098,45.21787]}},
{"type":"Feature","id":"208488516","properties":{"josm":"w208488516","name":"Центральная улица","nameuk":"Центральна вулиця"},"geometry":{"type":"Point","coordinates":[34.55975,46.59325]}},
{"type":"Feature","id":"208488545","properties":{"josm":"w208488545","name":"Мира улица","nameuk":"Миру вулиця"},"geometry":{"type":"Point","coordinates":[34.56218,46.59667]}},
{"type":"Feature","id":"208488584","properties":{"josm":"w208488584","name":"Мира улица","nameuk":"Миру вулиця"},"geometry":{"type":"Point","coordinates":[34.56153,46.59733]}},
{"type":"Feature","id":"208911797","properties":{"josm":"w208911797","name":"Героев Обороны улица","nameuk":"Героїв Оборони вулиця"},"geometry":{"type":"Point","coordinates":[35.12573,50.81561]}},
{"type":"Feature","id":"209140816","properties":{"josm":"w209140816","name":"кубанская улица","nameuk":"Кубанська вулиця"},"geometry":{"type":"Point","coordinates":[34.60676,45.15258]}},
{"type":"Feature","id":"213434074","properties":{"josm":"w213434074","name":"Спортивна вулиця","nameuk":"Дніпровська вулиця"},"geometry":{"type":"Point","coordinates":[36.0782,48.52674]}},
{"type":"Feature","id":"214776430","properties":{"josm":"w214776430","name":"Хасановский переулок","nameuk":"Хасанівський провулок"},"geometry":{"type":"Point","coordinates":[34.35297,47.56616]}},
{"type":"Feature","id":"216596875","properties":{"josm":"w216596875","name":"Центральна вулиця","nameuk":"Радянська вулиця"},"geometry":{"type":"Point","coordinates":[34.04059,52.18363]}},
{"type":"Feature","id":"217960428","properties":{"josm":"w217960428","name":"Дорошенка вулиця","nameuk":"Радянська вулиця"},"geometry":{"type":"Point","coordinates":[35.25833,51.02824]}},
{"type":"Feature","id":"217983138","properties":{"josm":"w217983138","name":"Йосипа Лапушкіна провулок","nameuk":"Йосипа Лапушкіна  провулок"},"geometry":{"type":"Point","coordinates":[26.97843,49.42796]}},
{"type":"Feature","id":"220260634","properties":{"josm":"w220260634","name":"Виноградна вулиця","nameuk":"Виноградка вулиця"},"geometry":{"type":"Point","coordinates":[34.80556,46.17865]}},
{"type":"Feature","id":"220933309","properties":{"josm":"w220933309","name":"Молодіжна вулиця","nameuk":"Пролетарська вулиця"},"geometry":{"type":"Point","coordinates":[34.03833,52.18456]}},
{"type":"Feature","id":"221584447","properties":{"josm":"w221584447","name":"Рейдовий провулок","nameuk":"Рейдовий переулок"},"geometry":{"type":"Point","coordinates":[30.67469,46.33891]}},
{"type":"Feature","id":"223216626","properties":{"josm":"w223216626","name":"улица Мусы Мамута","nameuk":"Муси Мамута вулиця"},"geometry":{"type":"Point","coordinates":[33.99424,44.79057]}},
{"type":"Feature","id":"223338097","properties":{"josm":"w223338097","name":"Новая улица","nameuk":"Нова вулиця"},"geometry":{"type":"Point","coordinates":[30.28116,46.53728]}},
{"type":"Feature","id":"223346705","properties":{"josm":"w223346705","name":"улица Мусы Мамута","nameuk":"Муси Мамута вулиця"},"geometry":{"type":"Point","coordinates":[33.99439,44.79006]}},
{"type":"Feature","id":"223804990","properties":{"josm":"w223804990","name":"Островського вулиця","nameuk":"Радісна вулиця"},"geometry":{"type":"Point","coordinates":[30.43231,46.25609]}},
{"type":"Feature","id":"224210906","properties":{"josm":"w224210906","name":"Лесной переулок","nameuk":"Лісовий провулок"},"geometry":{"type":"Point","coordinates":[30.83743,46.5608]}},
{"type":"Feature","id":"224747271","properties":{"josm":"w224747271","name":"улица Симиренко","nameuk":"Симеренка вулиця"},"geometry":{"type":"Point","coordinates":[34.86838,45.27785]}},
{"type":"Feature","id":"225784838","properties":{"josm":"w225784838","name":"Рыбачья улица","nameuk":"Рибальська вулиця"},"geometry":{"type":"Point","coordinates":[30.74438,46.38973]}},
{"type":"Feature","id":"225921782","properties":{"josm":"w225921782","name":"Радостная улица","nameuk":"Радісна вулиця"},"geometry":{"type":"Point","coordinates":[30.60809,46.39862]}},
{"type":"Feature","id":"225931419","properties":{"josm":"w225931419","name":"улица Шевченко","nameuk":"Шевченка вулиця"},"geometry":{"type":"Point","coordinates":[33.99461,44.78689]}},
{"type":"Feature","id":"226519002","properties":{"josm":"w226519002","name":"Одесская улица","nameuk":"Одеська вулиця"},"geometry":{"type":"Point","coordinates":[30.64497,46.28528]}},
{"type":"Feature","id":"226717393","properties":{"josm":"w226717393","name":"Виноградная улица","nameuk":"Виноградна вулиця"},"geometry":{"type":"Point","coordinates":[30.69924,46.37718]}},
{"type":"Feature","id":"227760718","properties":{"josm":"w227760718","name":"Центральная улица","nameuk":"Центральна вулиця"},"geometry":{"type":"Point","coordinates":[31.00304,46.6435]}},
{"type":"Feature","id":"228973071","properties":{"josm":"w228973071","name":"Шевченка вулиця","nameuk":"Шевченко вулиця"},"geometry":{"type":"Point","coordinates":[31.02263,50.75112]}},
{"type":"Feature","id":"229119773","properties":{"josm":"w229119773","name":"Г. Сковороди вулиця","nameuk":"Комсомольська вулиця"},"geometry":{"type":"Point","coordinates":[34.28148,48.48092]}},
{"type":"Feature","id":"230102083","properties":{"josm":"w230102083","name":"улица Николаева","nameuk":"Фрунзе вулиця"},"geometry":{"type":"Point","coordinates":[33.97564,44.81935]}},
{"type":"Feature","id":"230172835","properties":{"josm":"w230172835","name":"Саксаганського (Пролетарська) вулиця","nameuk":"Пролетарська вулиця"},"geometry":{"type":"Point","coordinates":[32.52625,50.22329]}},
{"type":"Feature","id":"230593948","properties":{"josm":"w230593948","name":"Килийская улица","nameuk":"Кілійська вулиця"},"geometry":{"type":"Point","coordinates":[30.70156,46.37416]}},
{"type":"Feature","id":"231093804","properties":{"josm":"w231093804","name":"Троянд провулок","nameuk":"2-й Вишневий провулок"},"geometry":{"type":"Point","coordinates":[33.27919,48.04376]}},
{"type":"Feature","id":"231180106","properties":{"josm":"w231180106","name":"Новая улица","nameuk":"Нова вулиця"},"geometry":{"type":"Point","coordinates":[32.11004,46.62048]}},
{"type":"Feature","id":"235090030","properties":{"josm":"w235090030","name":"Парковая улица","nameuk":"Паркова вулиця"},"geometry":{"type":"Point","coordinates":[30.25892,46.52538]}},
{"type":"Feature","id":"235989227","properties":{"josm":"w235989227","name":"Садовая улица","nameuk":"Садова вулиця"},"geometry":{"type":"Point","coordinates":[29.99272,46.59562]}},
{"type":"Feature","id":"235989229","properties":{"josm":"w235989229","name":"Хуторская улица","nameuk":"Хутірська вулиця"},"geometry":{"type":"Point","coordinates":[29.99965,46.61028]}},
{"type":"Feature","id":"235989237","properties":{"josm":"w235989237","name":"Степовая улица","nameuk":"Степова вулиця"},"geometry":{"type":"Point","coordinates":[30.0058,46.59045]}},
{"type":"Feature","id":"235989241","properties":{"josm":"w235989241","name":"Садовая улица","nameuk":"Садова вулиця"},"geometry":{"type":"Point","coordinates":[29.99436,46.58405]}},
{"type":"Feature","id":"235989253","properties":{"josm":"w235989253","name":"Победы улица","nameuk":"Перемоги вулиця"},"geometry":{"type":"Point","coordinates":[29.98366,46.60619]}},
{"type":"Feature","id":"235989254","properties":{"josm":"w235989254","name":"Хуторская улица","nameuk":"Хутірська вулиця"},"geometry":{"type":"Point","coordinates":[29.99922,46.60933]}},
{"type":"Feature","id":"236735526","properties":{"josm":"w236735526","name":"Молодіжна провулок","nameuk":"Молодіжний провулок"},"geometry":{"type":"Point","coordinates":[29.87764,47.33186]}},
{"type":"Feature","id":"236838813","properties":{"josm":"w236838813","name":"Незалежності провулок","nameuk":"Незалежності  провулок"},"geometry":{"type":"Point","coordinates":[28.4379,50.59623]}},
{"type":"Feature","id":"237045188","properties":{"josm":"w237045188","name":"К.Цеткин вулиця","nameuk":"К.Цеткін вулиця"},"geometry":{"type":"Point","coordinates":[33.43932,46.84991]}},
{"type":"Feature","id":"237669994","properties":{"josm":"w237669994","name":"Бойківська вулиця","nameuk":"Бойківська  вулиця"},"geometry":{"type":"Point","coordinates":[33.78325,47.1922]}},
{"type":"Feature","id":"237670166","properties":{"josm":"w237670166","name":"Івана Франка вулиця","nameuk":"Комсомольська вулиця"},"geometry":{"type":"Point","coordinates":[33.77514,47.19497]}},
{"type":"Feature","id":"238295194","properties":{"josm":"w238295194","name":"улица Комова","nameuk":"Комова вулиця"},"geometry":{"type":"Point","coordinates":[38.20261,47.92388]}},
{"type":"Feature","id":"238498877","properties":{"josm":"w238498877","name":"Лермонтова вулиця","nameuk":"Некрасова вулиця"},"geometry":{"type":"Point","coordinates":[26.97718,49.65622]}},
{"type":"Feature","id":"239162603","properties":{"josm":"w239162603","name":"вулиця Саркісова","nameuk":"Курганський провулок"},"geometry":{"type":"Point","coordinates":[37.59868,48.7653]}},
{"type":"Feature","id":"241071665","properties":{"josm":"w241071665","name":"Космонавта Попова бульвар","nameuk":"Попова площа"},"geometry":{"type":"Point","coordinates":[33.11711,48.66341]}},
{"type":"Feature","id":"241532648","properties":{"josm":"w241532648","name":"Лухтовская улица","nameuk":"Лухтівська вулиця"},"geometry":{"type":"Point","coordinates":[33.87499,51.23832]}},
{"type":"Feature","id":"241720836","properties":{"josm":"w241720836","name":"Вишнёвая улица","nameuk":"Вишнева вулиця"},"geometry":{"type":"Point","coordinates":[33.62114,44.8996]}},
{"type":"Feature","id":"242249683","properties":{"josm":"w242249683","name":"Ломоносова улица","nameuk":"Ломоносова вулиця"},"geometry":{"type":"Point","coordinates":[35.16325,50.34179]}},
{"type":"Feature","id":"242337057","properties":{"josm":"w242337057","name":"Шкільна вулиця","nameuk":"Чкалова вулиця"},"geometry":{"type":"Point","coordinates":[39.45048,48.67179]}},
{"type":"Feature","id":"242526395","properties":{"josm":"w242526395","name":"Нікольска вулиця","nameuk":"Чапаєва вулиця"},"geometry":{"type":"Point","coordinates":[34.04544,52.19047]}},
{"type":"Feature","id":"242529224","properties":{"josm":"w242529224","name":"Слобожанська вулиця","nameuk":"Першотравнева вулиця"},"geometry":{"type":"Point","coordinates":[34.0477,52.19208]}},
{"type":"Feature","id":"242940229","properties":{"josm":"w242940229","name":"Слесарная улица","nameuk":"Кузнечна вулиця"},"geometry":{"type":"Point","coordinates":[33.53346,44.59177]}},
{"type":"Feature","id":"243030032","properties":{"josm":"w243030032","name":"Улица Куйбышева","nameuk":"Чапаєва вулиця (вулиця Куйбышева)"},"geometry":{"type":"Point","coordinates":[34.34707,46.81979]}},
{"type":"Feature","id":"243050652","properties":{"josm":"w243050652","name":"Пушкина улица","nameuk":"Пушкіна вулиця"},"geometry":{"type":"Point","coordinates":[34.38714,46.82814]}},
{"type":"Feature","id":"243051087","properties":{"josm":"w243051087","name":"Калинина улица","nameuk":"Калініна вулиця"},"geometry":{"type":"Point","coordinates":[34.38245,46.83934]}},
{"type":"Feature","id":"246173085","properties":{"josm":"w246173085","name":"Нестора Махно вулиця","nameuk":"Щорса вулиця"},"geometry":{"type":"Point","coordinates":[34.2158,48.48298]}},
{"type":"Feature","id":"246173087","properties":{"josm":"w246173087","name":"Княгині Ольги вулиця","nameuk":"Княгинї Ольги вулиця"},"geometry":{"type":"Point","coordinates":[34.21797,48.47861]}},
{"type":"Feature","id":"246867425","properties":{"josm":"w246867425","name":"улица Водохранилище","nameuk":"Водосховище вулиця"},"geometry":{"type":"Point","coordinates":[35.12107,45.0414]}},
{"type":"Feature","id":"247332301","properties":{"josm":"w247332301","name":"Другий Соборний провулок","nameuk":"Островського провулок"},"geometry":{"type":"Point","coordinates":[34.2513,48.48079]}},
{"type":"Feature","id":"248333791","properties":{"josm":"w248333791","name":"Центральна вулиця","nameuk":"Леніна вулиця"},"geometry":{"type":"Point","coordinates":[32.53763,48.54474]}},
{"type":"Feature","id":"249018162","properties":{"josm":"w249018162","name":"Івана Виговського вулиця","nameuk":"Карла Маркса вулиця"},"geometry":{"type":"Point","coordinates":[26.57877,49.17589]}},
{"type":"Feature","id":"250080828","properties":{"josm":"w250080828","name":"Школьный переулок","nameuk":"Шкільний провулок"},"geometry":{"type":"Point","coordinates":[36.21618,48.55874]}},
{"type":"Feature","id":"250527536","properties":{"josm":"w250527536","name":"Тиха  вулиця","nameuk":"Центральна вулиця"},"geometry":{"type":"Point","coordinates":[34.01819,48.79832]}},
{"type":"Feature","id":"251255495","properties":{"josm":"w251255495","name":"Зелёная улица","nameuk":"Зелена вулиця"},"geometry":{"type":"Point","coordinates":[33.3093,51.7711]}},
{"type":"Feature","id":"253892615","properties":{"josm":"w253892615","name":"Садовая улица","nameuk":"Садова вулиця"},"geometry":{"type":"Point","coordinates":[35.31486,50.03693]}},
{"type":"Feature","id":"255683239","properties":{"josm":"w255683239","name":"Петропавлівська вулиця","nameuk":"Будівельна вулиця"},"geometry":{"type":"Point","coordinates":[33.64528,47.57156]}},
{"type":"Feature","id":"258465524","properties":{"josm":"w258465524","name":"Південна вулиця","nameuk":"Южна вулиця"},"geometry":{"type":"Point","coordinates":[33.86438,48.04041]}},
{"type":"Feature","id":"258465525","properties":{"josm":"w258465525","name":"Південна вулиця","nameuk":"Южна вулиця"},"geometry":{"type":"Point","coordinates":[33.87091,48.03985]}},
{"type":"Feature","id":"258560629","properties":{"josm":"w258560629","name":"Ринкова вулиця","nameuk":"50 років Жовтня вулиця"},"geometry":{"type":"Point","coordinates":[30.45774,48.38591]}},
{"type":"Feature","id":"259332305","properties":{"josm":"w259332305","name":"Привокзальный провулок","nameuk":"Кірова провулок"},"geometry":{"type":"Point","coordinates":[37.82604,48.96177]}},
{"type":"Feature","id":"262030418","properties":{"josm":"w262030418","name":"Центральна вулиця","nameuk":"Леніна вулиця"},"geometry":{"type":"Point","coordinates":[32.52971,48.54481]}},
{"type":"Feature","id":"262721205","properties":{"josm":"w262721205","name":"Чайкиної вулиця","nameuk":"Чайкіної вулиця"},"geometry":{"type":"Point","coordinates":[37.52005,47.5843]}},
{"type":"Feature","id":"264767902","properties":{"josm":"w264767902","name":"Пушкина улица","nameuk":"Пушкіна вулиця"},"geometry":{"type":"Point","coordinates":[33.49222,46.7377]}},
{"type":"Feature","id":"265039805","properties":{"josm":"w265039805","name":"Святомиколаївська вулиця","nameuk":"Святомиколаївськаа вулиця"},"geometry":{"type":"Point","coordinates":[33.46003,51.84882]}},
{"type":"Feature","id":"265091648","properties":{"josm":"w265091648","name":"Крайний переулок","nameuk":"Крайня вулиця"},"geometry":{"type":"Point","coordinates":[34.95539,45.18745]}},
{"type":"Feature","id":"265974173","properties":{"josm":"w265974173","name":"8-а Лінія вулиця","nameuk":"8-а лінія вулиця"},"geometry":{"type":"Point","coordinates":[29.91719,50.56548]}},
{"type":"Feature","id":"266705833","properties":{"josm":"w266705833","name":"Короленко вулиця","nameuk":"Короленка вулиця"},"geometry":{"type":"Point","coordinates":[34.53535,49.83016]}},
{"type":"Feature","id":"267064327","properties":{"josm":"w267064327","name":"5-й Кавказький проїзд","nameuk":"Ранкова вулиця"},"geometry":{"type":"Point","coordinates":[26.99478,49.38965]}},
{"type":"Feature","id":"267927631","properties":{"josm":"w267927631","name":"зелёная улица","nameuk":"Зелена вулиця"},"geometry":{"type":"Point","coordinates":[36.01559,45.26491]}},
{"type":"Feature","id":"268081418","properties":{"josm":"w268081418","name":"Улица Дружбы","nameuk":"Дружби вулиця"},"geometry":{"type":"Point","coordinates":[34.59679,45.14018]}},
{"type":"Feature","id":"270322915","properties":{"josm":"w270322915","name":"Островского улица","nameuk":"Островського вулиця"},"geometry":{"type":"Point","coordinates":[35.21293,50.35146]}},
{"type":"Feature","id":"272266082","properties":{"josm":"w272266082","name":"переулок 23 Мая 1919 Года","nameuk":"23 Травня 1919 Року провулок"},"geometry":{"type":"Point","coordinates":[36.4696,45.35379]}},
{"type":"Feature","id":"274662290","properties":{"josm":"w274662290","name":"Січових Стрільців вулиця","nameuk":"Січових стрільців вулиця"},"geometry":{"type":"Point","coordinates":[30.13329,49.77477]}},
{"type":"Feature","id":"276815260","properties":{"josm":"w276815260","name":"М. Немолота вулиця","nameuk":"М.Немолота вулиця"},"geometry":{"type":"Point","coordinates":[33.22701,51.22548]}},
{"type":"Feature","id":"281390337","properties":{"josm":"w281390337","name":"Інститутська провулок","nameuk":"Інститутський провулок"},"geometry":{"type":"Point","coordinates":[30.09328,49.78527]}},
{"type":"Feature","id":"282579005","properties":{"josm":"w282579005","name":"Тухачевського (Іподромна) вулиця","nameuk":"Тухачевського (Ипподромная) вулиця"},"geometry":{"type":"Point","coordinates":[35.12062,49.46842]}},
{"type":"Feature","id":"282579011","properties":{"josm":"w282579011","name":"Калініна (Дробця) вулиця","nameuk":"Калініна вулиця"},"geometry":{"type":"Point","coordinates":[35.1254,49.46092]}},
{"type":"Feature","id":"282667848","properties":{"josm":"w282667848","name":"Студентський провулок","nameuk":"Студентська провулок"},"geometry":{"type":"Point","coordinates":[30.09316,49.78698]}},
{"type":"Feature","id":"283311754","properties":{"josm":"w283311754","name":"Інститутський провулок","nameuk":"Інститутська вулиця"},"geometry":{"type":"Point","coordinates":[30.09205,49.78417]}},
{"type":"Feature","id":"283311756","properties":{"josm":"w283311756","name":"Студентська провулок","nameuk":"Студентський провулок"},"geometry":{"type":"Point","coordinates":[30.09276,49.78689]}},
{"type":"Feature","id":"288121149","properties":{"josm":"w288121149","name":"Политехническая","nameuk":"Політехнічна"},"geometry":{"type":"Point","coordinates":[35.01055,48.44512]}},
{"type":"Feature","id":"288581554","properties":{"josm":"w288581554","name":"Садовая улица","nameuk":"Садова вулиця"},"geometry":{"type":"Point","coordinates":[29.9936,46.59384]}},
{"type":"Feature","id":"289229788","properties":{"josm":"w289229788","name":"Новоселівська вулиця","nameuk":"Щорса вулиця"},"geometry":{"type":"Point","coordinates":[32.64327,50.07593]}},
{"type":"Feature","id":"290359480","properties":{"josm":"w290359480","name":"Петропавловский провулок","nameuk":"Леніна провулок"},"geometry":{"type":"Point","coordinates":[37.78017,49.00161]}},
{"type":"Feature","id":"293912067","properties":{"josm":"w293912067","name":"улица Зелёная","nameuk":"Зелений провулок"},"geometry":{"type":"Point","coordinates":[36.45284,45.35428]}},
{"type":"Feature","id":"301242063","properties":{"josm":"w301242063","name":"Комсомольський (Максименко) провулок","nameuk":"Комсомольський провулок"},"geometry":{"type":"Point","coordinates":[35.14077,49.45904]}},
{"type":"Feature","id":"304386665","properties":{"josm":"w304386665","name":"Молодежная улица","nameuk":"Молодіжна вулиця"},"geometry":{"type":"Point","coordinates":[38.07073,47.67644]}},
{"type":"Feature","id":"304386676","properties":{"josm":"w304386676","name":"Молодежная улица","nameuk":"Молодіжна вулиця"},"geometry":{"type":"Point","coordinates":[38.07138,47.67776]}},
{"type":"Feature","id":"306281266","properties":{"josm":"w306281266","name":"Комсомольський (Максименко) провулок","nameuk":"Комсомольський провулок"},"geometry":{"type":"Point","coordinates":[35.14239,49.45879]}},
{"type":"Feature","id":"307938865","properties":{"josm":"w307938865","name":"Козаченка вулиця","nameuk":"Козаченко вулиця"},"geometry":{"type":"Point","coordinates":[38.43313,48.8914]}},
{"type":"Feature","id":"307941928","properties":{"josm":"w307941928","name":"Івана Франка вулиця","nameuk":"Франка вулиця"},"geometry":{"type":"Point","coordinates":[38.43574,48.89034]}},
{"type":"Feature","id":"308454787","properties":{"josm":"w308454787","name":"улица Ешиль Ада","nameuk":"Мирна вулиця"},"geometry":{"type":"Point","coordinates":[34.98881,44.83911]}},
{"type":"Feature","id":"308959404","properties":{"josm":"w308959404","name":"Южная","nameuk":"Південна"},"geometry":{"type":"Point","coordinates":[30.63896,46.43847]}},
{"type":"Feature","id":"313254004","properties":{"josm":"w313254004","name":"Пролетарська вулиця","nameuk":"Европейська вулиця"},"geometry":{"type":"Point","coordinates":[33.36657,49.09969]}},
{"type":"Feature","id":"313556680","properties":{"josm":"w313556680","name":"Залізнична вулиця","nameuk":"Шота вулиця"},"geometry":{"type":"Point","coordinates":[37.17813,48.28415]}},
{"type":"Feature","id":"315891608","properties":{"josm":"w315891608","name":"Лісова вулиця","nameuk":"Лісна вулиця"},"geometry":{"type":"Point","coordinates":[33.28573,49.1199]}},
{"type":"Feature","id":"315891608","properties":{"josm":"w315891608","name":"Лісова вулиця","nameuk":"Лісна вулиця"},"geometry":{"type":"Point","coordinates":[33.28573,49.1199]}},
{"type":"Feature","id":"316504888","properties":{"josm":"w316504888","name":"Пушкина улица","nameuk":"Пушкіна вулиця"},"geometry":{"type":"Point","coordinates":[36.21681,48.55459]}},
{"type":"Feature","id":"316504902","properties":{"josm":"w316504902","name":"Соборная улица","nameuk":"Соборна вулиця"},"geometry":{"type":"Point","coordinates":[36.21727,48.55686]}},
{"type":"Feature","id":"316544561","properties":{"josm":"w316544561","name":"Галузевий проїзд","nameuk":"Галузевий провулок"},"geometry":{"type":"Point","coordinates":[33.45535,49.15754]}},
{"type":"Feature","id":"319671081","properties":{"josm":"w319671081","name":"Терешкова вулиця","nameuk":"Мічуріна вулиця"},"geometry":{"type":"Point","coordinates":[29.85431,47.07752]}},
{"type":"Feature","id":"320121311","properties":{"josm":"w320121311","name":"Східна вулиця","nameuk":"Skhidna"},"geometry":{"type":"Point","coordinates":[35.14095,48.56738]}},
{"type":"Feature","id":"321111229","properties":{"josm":"w321111229","name":"Школьный переулок","nameuk":"Шкільний провулок"},"geometry":{"type":"Point","coordinates":[33.92642,47.50136]}},
{"type":"Feature","id":"322193053","properties":{"josm":"w322193053","name":"Круча вулиця","nameuk":"Свердлова вулиця"},"geometry":{"type":"Point","coordinates":[30.22881,50.4146]}},
{"type":"Feature","id":"323547122","properties":{"josm":"w323547122","name":"Дружби провулок","nameuk":"Дружби вулиця"},"geometry":{"type":"Point","coordinates":[26.02746,50.54447]}},
{"type":"Feature","id":"325184739","properties":{"josm":"w325184739","name":"вулиця Росавська","nameuk":"Червоноармійська вулиця"},"geometry":{"type":"Point","coordinates":[30.83,49.8657]}},
{"type":"Feature","id":"325200717","properties":{"josm":"w325200717","name":"вулиця Відродження","nameuk":"Відродження вулиця"},"geometry":{"type":"Point","coordinates":[30.82548,49.86859]}},
{"type":"Feature","id":"327118715","properties":{"josm":"w327118715","name":"Залізнична вулиця","nameuk":"Шота вулиця"},"geometry":{"type":"Point","coordinates":[37.16709,48.28619]}},
{"type":"Feature","id":"327118718","properties":{"josm":"w327118718","name":"Залізнична вулиця","nameuk":"Шота вулиця"},"geometry":{"type":"Point","coordinates":[37.1524,48.28753]}},
{"type":"Feature","id":"329089928","properties":{"josm":"w329089928","name":"Енгельса вулиця","nameuk":"Килимова вулиця"},"geometry":{"type":"Point","coordinates":[34.07586,49.56077]}},
{"type":"Feature","id":"332249151","properties":{"josm":"w332249151","name":"Виноградський провулок","nameuk":"Виноградский провулок"},"geometry":{"type":"Point","coordinates":[33.45986,51.84214]}},
{"type":"Feature","id":"333432096","properties":{"josm":"w333432096","name":"Молодежная улица","nameuk":"Молодіжна вулиця"},"geometry":{"type":"Point","coordinates":[38.07158,47.67763]}},
{"type":"Feature","id":"333545976","properties":{"josm":"w333545976","name":"улица Милании Мусиенко","nameuk":"Меланії Мусієнко вулиця"},"geometry":{"type":"Point","coordinates":[36.56242,45.36011]}},
{"type":"Feature","id":"333884083","properties":{"josm":"w333884083","name":"Героїв Чорнобиля вулиця","nameuk":"вулиця Героїв Чорнобиля"},"geometry":{"type":"Point","coordinates":[37.51755,47.93412]}},
{"type":"Feature","id":"333884143","properties":{"josm":"w333884143","name":"Прокоф’єва вулиця","nameuk":"вулиця Прокоф’єва"},"geometry":{"type":"Point","coordinates":[37.50544,47.94183]}},
{"type":"Feature","id":"333891437","properties":{"josm":"w333891437","name":"Фундукліївська вулиця","nameuk":"Горького вулиця"},"geometry":{"type":"Point","coordinates":[32.67541,49.0728]}},
{"type":"Feature","id":"334219315","properties":{"josm":"w334219315","name":"Фундукліївська вулиця","nameuk":"Горького вулиця"},"geometry":{"type":"Point","coordinates":[32.67803,49.07477]}},
{"type":"Feature","id":"335890716","properties":{"josm":"w335890716","name":"Південний провулок","nameuk":"Чкалова провулок"},"geometry":{"type":"Point","coordinates":[37.55187,47.7075]}},
{"type":"Feature","id":"336116218","properties":{"josm":"w336116218","name":"Озерная улица","nameuk":"Озерна вулиця"},"geometry":{"type":"Point","coordinates":[37.44876,48.57494]}},
{"type":"Feature","id":"336925963","properties":{"josm":"w336925963","name":"вулиця Горького","nameuk":"Горького вулиця"},"geometry":{"type":"Point","coordinates":[37.78407,48.40065]}},
{"type":"Feature","id":"336925964","properties":{"josm":"w336925964","name":"вулиця Дзержинського","nameuk":"Дзержинського вулиця"},"geometry":{"type":"Point","coordinates":[37.80207,48.37934]}},
{"type":"Feature","id":"336925965","properties":{"josm":"w336925965","name":"вулиця Карла Маркса","nameuk":"Карла Маркса вулиця"},"geometry":{"type":"Point","coordinates":[37.78699,48.38625]}},
{"type":"Feature","id":"336925969","properties":{"josm":"w336925969","name":"вулиця Куйбишева","nameuk":"Куйбишева вулиця"},"geometry":{"type":"Point","coordinates":[37.80116,48.38657]}},
{"type":"Feature","id":"336925974","properties":{"josm":"w336925974","name":"вулиця Пилипенка","nameuk":"Пилипенко вулиця"},"geometry":{"type":"Point","coordinates":[37.80041,48.38436]}},
{"type":"Feature","id":"336925975","properties":{"josm":"w336925975","name":"вулиця Перемоги","nameuk":"Перемоги вулиця"},"geometry":{"type":"Point","coordinates":[37.78302,48.4026]}},
{"type":"Feature","id":"336925977","properties":{"josm":"w336925977","name":"вулиця Шевченка","nameuk":"Шевченка вулиця"},"geometry":{"type":"Point","coordinates":[37.77916,48.39989]}},
{"type":"Feature","id":"337646962","properties":{"josm":"w337646962","name":"Трейл Канатный","nameuk":"Трейл Канатний"},"geometry":{"type":"Point","coordinates":[36.24159,50.02535]}},
{"type":"Feature","id":"338984267","properties":{"josm":"w338984267","name":"провулок Чужбинського","nameuk":"провулок Чужбинского"},"geometry":{"type":"Point","coordinates":[26.47057,48.50593]}},
{"type":"Feature","id":"342018461","properties":{"josm":"w342018461","name":"Кольцевая вулиця","nameuk":"Кільцева вулиця"},"geometry":{"type":"Point","coordinates":[29.80531,49.92523]}},
{"type":"Feature","id":"348715556","properties":{"josm":"w348715556","name":"Садова вулиця","nameuk":"Садовий провулок"},"geometry":{"type":"Point","coordinates":[38.1616,48.55637]}},
{"type":"Feature","id":"349250916","properties":{"josm":"w349250916","name":"Мира улица","nameuk":"Миру вулиця"},"geometry":{"type":"Point","coordinates":[33.91474,47.50197]}},
{"type":"Feature","id":"349252597","properties":{"josm":"w349252597","name":"Дудченко улица","nameuk":"Дудченка вулиця"},"geometry":{"type":"Point","coordinates":[33.90857,47.4923]}},
{"type":"Feature","id":"349260892","properties":{"josm":"w349260892","name":"Ореховая улица","nameuk":"Горіхова вулиця"},"geometry":{"type":"Point","coordinates":[33.91016,47.50148]}},
{"type":"Feature","id":"353833606","properties":{"josm":"w353833606","name":"Надежды улица","nameuk":"Надії вулиця"},"geometry":{"type":"Point","coordinates":[33.91697,47.49024]}},
{"type":"Feature","id":"353833624","properties":{"josm":"w353833624","name":"Орлиная улица","nameuk":"Орлина вулиця"},"geometry":{"type":"Point","coordinates":[33.92058,47.48834]}},
{"type":"Feature","id":"353839538","properties":{"josm":"w353839538","name":"Невского улица","nameuk":"Невського вулиця"},"geometry":{"type":"Point","coordinates":[33.91177,47.50755]}},
{"type":"Feature","id":"353839543","properties":{"josm":"w353839543","name":"Вишнёвый переулок","nameuk":"Вишневий провулок"},"geometry":{"type":"Point","coordinates":[33.92368,47.51288]}},
{"type":"Feature","id":"353839549","properties":{"josm":"w353839549","name":"Молодёжный переулок","nameuk":"Молодіжний провулок"},"geometry":{"type":"Point","coordinates":[33.91793,47.51121]}},
{"type":"Feature","id":"357853573","properties":{"josm":"w357853573","name":"Ткаченко вулиця","nameuk":"Лікарняна"},"geometry":{"type":"Point","coordinates":[29.63118,47.92709]}},
{"type":"Feature","id":"359616480","properties":{"josm":"w359616480","name":"Петровського (Магістральна) вулиця","nameuk":"Петровського вулиця"},"geometry":{"type":"Point","coordinates":[32.43326,50.12068]}},
{"type":"Feature","id":"359633473","properties":{"josm":"w359633473","name":"Вишнева вулиця","nameuk":"Жовтнева вулиця"},"geometry":{"type":"Point","coordinates":[34.24159,48.47322]}},
{"type":"Feature","id":"360472395","properties":{"josm":"w360472395","name":"Переяславська провулок","nameuk":"Переяславський провулок"},"geometry":{"type":"Point","coordinates":[31.89955,49.19185]}},
{"type":"Feature","id":"360780680","properties":{"josm":"w360780680","name":"Щорса вулиця","nameuk":"Шевченка вулиця"},"geometry":{"type":"Point","coordinates":[27.17762,49.73306]}},
{"type":"Feature","id":"364235289","properties":{"josm":"w364235289","name":"Мельхіседека Значко-Яворського провулок","nameuk":"Карла Маркса провулок"},"geometry":{"type":"Point","coordinates":[32.66362,49.07163]}},
{"type":"Feature","id":"365349942","properties":{"josm":"w365349942","name":"Мира улица","nameuk":"Миру вулиця"},"geometry":{"type":"Point","coordinates":[36.20872,47.98325]}},
{"type":"Feature","id":"365349950","properties":{"josm":"w365349950","name":"Мира улица","nameuk":"Миру вулиця"},"geometry":{"type":"Point","coordinates":[36.21177,47.98497]}},
{"type":"Feature","id":"366720862","properties":{"josm":"w366720862","name":"Привокзальный провулок","nameuk":"Кірова провулок"},"geometry":{"type":"Point","coordinates":[37.82304,48.95965]}},
{"type":"Feature","id":"367052452","properties":{"josm":"w367052452","name":"проход","nameuk":"прохід"},"geometry":{"type":"Point","coordinates":[30.72804,46.44237]}},
{"type":"Feature","id":"370094427","properties":{"josm":"w370094427","name":"Островського провулок","nameuk":"Миру провулок"},"geometry":{"type":"Point","coordinates":[38.15959,48.55038]}},
{"type":"Feature","id":"371929831","properties":{"josm":"w371929831","name":"Шевченко улица","nameuk":"Шевченка вулиця"},"geometry":{"type":"Point","coordinates":[30.00931,46.59884]}},
{"type":"Feature","id":"372687704","properties":{"josm":"w372687704","name":"Парковая улица","nameuk":"Паркова вулиця"},"geometry":{"type":"Point","coordinates":[30.26092,46.52587]}},
{"type":"Feature","id":"372687705","properties":{"josm":"w372687705","name":"Парковая улица","nameuk":"Паркова вулиця"},"geometry":{"type":"Point","coordinates":[30.26081,46.52478]}},
{"type":"Feature","id":"372687706","properties":{"josm":"w372687706","name":"Парковая улица","nameuk":"Паркова вулиця"},"geometry":{"type":"Point","coordinates":[30.25906,46.52456]}},
{"type":"Feature","id":"372687707","properties":{"josm":"w372687707","name":"Парковая улица","nameuk":"Паркова вулиця"},"geometry":{"type":"Point","coordinates":[30.2603,46.52507]}},
{"type":"Feature","id":"374272283","properties":{"josm":"w374272283","name":"Зелёная улица","nameuk":"Зелена вулиця"},"geometry":{"type":"Point","coordinates":[33.30219,51.76598]}},
{"type":"Feature","id":"374272911","properties":{"josm":"w374272911","name":"Зелёная улица","nameuk":"Зелена вулиця"},"geometry":{"type":"Point","coordinates":[33.30461,51.76865]}},
{"type":"Feature","id":"378032317","properties":{"josm":"w378032317","name":"Озёрная улица","nameuk":"Озерна вулиця"},"geometry":{"type":"Point","coordinates":[37.48062,49.28634]}},
{"type":"Feature","id":"382326985","properties":{"josm":"w382326985","name":"Днепровская улица","nameuk":"Дніпровська вулиця "},"geometry":{"type":"Point","coordinates":[33.92908,47.49316]}},
{"type":"Feature","id":"385084331","properties":{"josm":"w385084331","name":"Кйбишева вулиця","nameuk":"Куйбишева вулиця"},"geometry":{"type":"Point","coordinates":[37.83232,48.95713]}},
{"type":"Feature","id":"385257640","properties":{"josm":"w385257640","name":"Пешеходный переход","nameuk":"Пішохідний перехід"},"geometry":{"type":"Point","coordinates":[30.73016,46.55859]}},
{"type":"Feature","id":"385413329","properties":{"josm":"w385413329","name":"Пешеходный переход","nameuk":"Пішохідний перехід"},"geometry":{"type":"Point","coordinates":[30.73517,46.55582]}},
{"type":"Feature","id":"385413330","properties":{"josm":"w385413330","name":"Пешеходный переход","nameuk":"Пішохідний перехід"},"geometry":{"type":"Point","coordinates":[30.73508,46.55625]}},
{"type":"Feature","id":"385472935","properties":{"josm":"w385472935","name":"Пешеходный переход","nameuk":"Пішохідний перехід"},"geometry":{"type":"Point","coordinates":[30.74041,46.53918]}},
{"type":"Feature","id":"387319577","properties":{"josm":"w387319577","name":"Воронцовская улица","nameuk":"Воронцовская"},"geometry":{"type":"Point","coordinates":[32.73726,46.68197]}},
{"type":"Feature","id":"388243183","properties":{"josm":"w388243183","name":"3-я лінія","nameuk":"3-а лінія"},"geometry":{"type":"Point","coordinates":[30.72738,46.4045]}},
{"type":"Feature","id":"390098801","properties":{"josm":"w390098801","name":"Корниевского","nameuk":"Корнiевського"},"geometry":{"type":"Point","coordinates":[32.24594,51.7791]}},
{"type":"Feature","id":"395269031","properties":{"josm":"w395269031","name":"Носаль Є. І. вулиця","nameuk":"Носаль вулиця"},"geometry":{"type":"Point","coordinates":[35.3103,47.37529]}},
{"type":"Feature","id":"400220181","properties":{"josm":"w400220181","name":"провулок Грищенка","nameuk":"Грищенко вулиця"},"geometry":{"type":"Point","coordinates":[36.39105,49.98682]}},
{"type":"Feature","id":"401951013","properties":{"josm":"w401951013","name":"Калинина улица","nameuk":"Калініна вулиця"},"geometry":{"type":"Point","coordinates":[33.12131,48.66824]}},
{"type":"Feature","id":"404015264","properties":{"josm":"w404015264","name":"Калиновий проїзд","nameuk":"Калиновий провулок"},"geometry":{"type":"Point","coordinates":[35.8422,48.53972]}},
{"type":"Feature","id":"404015265","properties":{"josm":"w404015265","name":"Вербний проїзд","nameuk":"Вербний провулок"},"geometry":{"type":"Point","coordinates":[35.84099,48.53963]}},
{"type":"Feature","id":"404015266","properties":{"josm":"w404015266","name":"Тополиний проїзд","nameuk":"Тополиний провулок"},"geometry":{"type":"Point","coordinates":[35.83968,48.53952]}},
{"type":"Feature","id":"412474021","properties":{"josm":"w412474021","name":"Мичурина улица","nameuk":"Мічуріна вулиця"},"geometry":{"type":"Point","coordinates":[33.93304,47.49376]}},
{"type":"Feature","id":"412474025","properties":{"josm":"w412474025","name":"Набережная улица","nameuk":"Набережна вулиця"},"geometry":{"type":"Point","coordinates":[33.92684,47.50773]}},
{"type":"Feature","id":"412474026","properties":{"josm":"w412474026","name":"Парковая улица","nameuk":"Паркова вулиця"},"geometry":{"type":"Point","coordinates":[33.92546,47.50736]}},
{"type":"Feature","id":"412776088","properties":{"josm":"w412776088","name":"Школьный переулок","nameuk":"Шкільний провулок"},"geometry":{"type":"Point","coordinates":[33.92898,47.50145]}},
{"type":"Feature","id":"412776101","properties":{"josm":"w412776101","name":"Горького улица","nameuk":"Горького вулиця"},"geometry":{"type":"Point","coordinates":[33.90828,47.4945]}},
{"type":"Feature","id":"412776105","properties":{"josm":"w412776105","name":"8 Марта переулок","nameuk":"8 Березня провулок"},"geometry":{"type":"Point","coordinates":[33.91029,47.49769]}},
{"type":"Feature","id":"413943505","properties":{"josm":"w413943505","name":"Оптимистов улица","nameuk":"Оптимістів вулиця"},"geometry":{"type":"Point","coordinates":[35.1119,48.37723]}},
{"type":"Feature","id":"415713504","properties":{"josm":"w415713504","name":"вул. Чапаєва (Чарівна)","nameuk":"Чапаєва вулиця"},"geometry":{"type":"Point","coordinates":[34.89004,47.02319]}},
{"type":"Feature","id":"415713505","properties":{"josm":"w415713505","name":"вул. Жданова","nameuk":"Горького"},"geometry":{"type":"Point","coordinates":[34.87805,47.01622]}},
{"type":"Feature","id":"415761359","properties":{"josm":"w415761359","name":"Кооперативна вулиця","nameuk":"Кооперативна вулиця "},"geometry":{"type":"Point","coordinates":[35.23245,47.28398]}},
{"type":"Feature","id":"416062063","properties":{"josm":"w416062063","name":"вул. Жданова","nameuk":"Чапаєва вулиця"},"geometry":{"type":"Point","coordinates":[34.87673,47.02233]}},
{"type":"Feature","id":"416784657","properties":{"josm":"w416784657","name":"Калинова вулиця","nameuk":"Калініна вулиця"},"geometry":{"type":"Point","coordinates":[34.26936,48.48079]}},
{"type":"Feature","id":"417364964","properties":{"josm":"w417364964","name":"Транспортная улица","nameuk":"вулиця Транспортна"},"geometry":{"type":"Point","coordinates":[36.12876,50.113]}},
{"type":"Feature","id":"417800569","properties":{"josm":"w417800569","name":"Комсомольський (Максименко) провулок","nameuk":"Комсомольський провулок"},"geometry":{"type":"Point","coordinates":[35.14683,49.4588]}},
{"type":"Feature","id":"420209686","properties":{"josm":"w420209686","name":"улица Пушкина","nameuk":"Жданова вулиця"},"geometry":{"type":"Point","coordinates":[34.38017,46.8265]}},
{"type":"Feature","id":"420214232","properties":{"josm":"w420214232","name":"ул. Карла Маркса","nameuk":"Жданова вулиця"},"geometry":{"type":"Point","coordinates":[34.38481,46.83593]}},
{"type":"Feature","id":"420225685","properties":{"josm":"w420225685","name":"ул. Карла Маркса","nameuk":"Жданова вулиця"},"geometry":{"type":"Point","coordinates":[34.38701,46.83955]}},
{"type":"Feature","id":"420792618","properties":{"josm":"w420792618","name":"Кооперативная улица","nameuk":"Кооперативна вулиця"},"geometry":{"type":"Point","coordinates":[35.75516,46.82599]}},
{"type":"Feature","id":"421240763","properties":{"josm":"w421240763","name":"Улица Цыбаня","nameuk":"Вулиця Цибаня"},"geometry":{"type":"Point","coordinates":[32.49182,50.25392]}},
{"type":"Feature","id":"421615811","properties":{"josm":"w421615811","name":"Героев труда улица","nameuk":"Героїв труда вулиця"},"geometry":{"type":"Point","coordinates":[35.00794,47.38561]}},
{"type":"Feature","id":"421777500","properties":{"josm":"w421777500","name":"Мира улица","nameuk":"Миру вулиця"},"geometry":{"type":"Point","coordinates":[34.5509,46.71783]}},
{"type":"Feature","id":"422840471","properties":{"josm":"w422840471","name":"Новая улица","nameuk":"Нова вулиця"},"geometry":{"type":"Point","coordinates":[36.22504,48.56591]}},
{"type":"Feature","id":"423497262","properties":{"josm":"w423497262","name":"Шевченко улица","nameuk":"Шевченка вулиця"},"geometry":{"type":"Point","coordinates":[36.20874,48.53847]}},
{"type":"Feature","id":"424436486","properties":{"josm":"w424436486","name":"Молодёжная улица","nameuk":"Молодіжна вулиця"},"geometry":{"type":"Point","coordinates":[36.09378,48.44954]}},
{"type":"Feature","id":"424772339","properties":{"josm":"w424772339","name":"1-й Заорільський провулок","nameuk":"3-й Заорільський провулок"},"geometry":{"type":"Point","coordinates":[34.52027,48.93094]}},
{"type":"Feature","id":"425193249","properties":{"josm":"w425193249","name":"Тихая улица","nameuk":"Тиха вулиця"},"geometry":{"type":"Point","coordinates":[36.08617,48.52721]}},
{"type":"Feature","id":"425318957","properties":{"josm":"w425318957","name":"Чапаева улица","nameuk":"Чапаєва вулиця"},"geometry":{"type":"Point","coordinates":[30.99815,46.70213]}},
{"type":"Feature","id":"425321594","properties":{"josm":"w425321594","name":"Вишнёвый переулок","nameuk":"Вишневий провулок"},"geometry":{"type":"Point","coordinates":[30.9977,46.69611]}},
{"type":"Feature","id":"425513277","properties":{"josm":"w425513277","name":"Вишнёвый переулок","nameuk":"Вишневий провулок"},"geometry":{"type":"Point","coordinates":[31.00032,46.69645]}},
{"type":"Feature","id":"425537979","properties":{"josm":"w425537979","name":"Чапаева улица","nameuk":"Чапаєва вулиця"},"geometry":{"type":"Point","coordinates":[30.9989,46.69334]}},
{"type":"Feature","id":"425537981","properties":{"josm":"w425537981","name":"Вишнёвый переулок","nameuk":"Вишневий провулок"},"geometry":{"type":"Point","coordinates":[30.99653,46.69596]}},
{"type":"Feature","id":"425538611","properties":{"josm":"w425538611","name":"Южный переулок","nameuk":"Південний провулок"},"geometry":{"type":"Point","coordinates":[30.99994,46.67119]}},
{"type":"Feature","id":"425539387","properties":{"josm":"w425539387","name":"Степовая улица","nameuk":"Степова вулиця"},"geometry":{"type":"Point","coordinates":[31.00514,46.68254]}},
{"type":"Feature","id":"438551172","properties":{"josm":"w438551172","name":"Независимости Украины улица","nameuk":"Незалежності України вулиця"},"geometry":{"type":"Point","coordinates":[33.91655,47.48831]}},
{"type":"Feature","id":"439815043","properties":{"josm":"w439815043","name":"Архитекторская улица","nameuk":"Вул. Архітекторська"},"geometry":{"type":"Point","coordinates":[30.72272,46.3861]}},
{"type":"Feature","id":"440234270","properties":{"josm":"w440234270","name":"Крикунівка вулиця","nameuk":"вулиця Крикунівка"},"geometry":{"type":"Point","coordinates":[36.96765,49.49662]}},
{"type":"Feature","id":"440901910","properties":{"josm":"w440901910","name":"бульвар Ивана Франко","nameuk":"Північний провулок"},"geometry":{"type":"Point","coordinates":[34.10742,44.96023]}},
{"type":"Feature","id":"441611497","properties":{"josm":"w441611497","name":"Фонарная улица","nameuk":"Фонарна вулиця"},"geometry":{"type":"Point","coordinates":[34.47221,49.56818]}},
{"type":"Feature","id":"441877279","properties":{"josm":"w441877279","name":"Июльская улица","nameuk":"Липнева вулиця"},"geometry":{"type":"Point","coordinates":[34.47857,49.57951]}},
{"type":"Feature","id":"441880904","properties":{"josm":"w441880904","name":"ИваІванівська вулиця","nameuk":"Іванівська вулиця"},"geometry":{"type":"Point","coordinates":[34.47031,49.57263]}},
{"type":"Feature","id":"441880960","properties":{"josm":"w441880960","name":"Подсолнечная улица","nameuk":"Соняшникова вулиця"},"geometry":{"type":"Point","coordinates":[34.47054,49.5712]}},
{"type":"Feature","id":"444151183","properties":{"josm":"w444151183","name":"Славы переулок","nameuk":"Слави провулок"},"geometry":{"type":"Point","coordinates":[35.2623,50.76276]}},
{"type":"Feature","id":"444151370","properties":{"josm":"w444151370","name":"Тургенева улица","nameuk":"Тургенєва вулиця"},"geometry":{"type":"Point","coordinates":[35.25859,50.76124]}},
{"type":"Feature","id":"444152248","properties":{"josm":"w444152248","name":"Славы улица","nameuk":"Слави вулиця"},"geometry":{"type":"Point","coordinates":[35.26311,50.76167]}},
{"type":"Feature","id":"444153421","properties":{"josm":"w444153421","name":"Степная улица","nameuk":"Степова вулиця"},"geometry":{"type":"Point","coordinates":[35.2714,50.75939]}},
{"type":"Feature","id":"444571383","properties":{"josm":"w444571383","name":"вулиця Росавська","nameuk":"Шевченка вулиця"},"geometry":{"type":"Point","coordinates":[30.82928,49.86254]}},
{"type":"Feature","id":"445233138","properties":{"josm":"w445233138","name":"Данилевского улица","nameuk":"Данилевського вулиця"},"geometry":{"type":"Point","coordinates":[37.25676,49.19146]}},
{"type":"Feature","id":"446327863","properties":{"josm":"w446327863","name":"Воронежский переулок","nameuk":"Воронезький провулок"},"geometry":{"type":"Point","coordinates":[36.81222,46.77193]}},
{"type":"Feature","id":"447279953","properties":{"josm":"w447279953","name":"Донецкая улица","nameuk":"Донецька вулиця"},"geometry":{"type":"Point","coordinates":[37.29234,49.21642]}},
{"type":"Feature","id":"448651370","properties":{"josm":"w448651370","name":"Ворошилова вулиця","nameuk":"Ворошилова улица"},"geometry":{"type":"Point","coordinates":[35.89468,47.25025]}},
{"type":"Feature","id":"450355202","properties":{"josm":"w450355202","name":"Горького  вулиця","nameuk":"Набережна вулиця"},"geometry":{"type":"Point","coordinates":[34.43011,48.60308]}},
{"type":"Feature","id":"451010945","properties":{"josm":"w451010945","name":"Робітничий провулок","nameuk":"Робітнича вулиця"},"geometry":{"type":"Point","coordinates":[34.40073,48.54415]}},
{"type":"Feature","id":"451878361","properties":{"josm":"w451878361","name":"Дружби  Народів вулиця","nameuk":"Гоголя вулиця"},"geometry":{"type":"Point","coordinates":[34.29163,48.65757]}},
{"type":"Feature","id":"451879315","properties":{"josm":"w451879315","name":"Підгірна вулиця","nameuk":"Шкільна вулиця"},"geometry":{"type":"Point","coordinates":[34.29288,48.65848]}},
{"type":"Feature","id":"452068367","properties":{"josm":"w452068367","name":"Могілевська","nameuk":"Тополина вулиця"},"geometry":{"type":"Point","coordinates":[36.81947,46.74247]}},
{"type":"Feature","id":"452207366","properties":{"josm":"w452207366","name":"Лісна  вулиця","nameuk":"Харківська вулиця"},"geometry":{"type":"Point","coordinates":[34.31908,48.65329]}},
{"type":"Feature","id":"452383661","properties":{"josm":"w452383661","name":"Г. Сковороди вулиця","nameuk":"Комсомольська вулиця"},"geometry":{"type":"Point","coordinates":[34.27536,48.47862]}},
{"type":"Feature","id":"452386056","properties":{"josm":"w452386056","name":"Княгині Ольги провулок","nameuk":"Крупської провулок"},"geometry":{"type":"Point","coordinates":[34.21357,48.48077]}},
{"type":"Feature","id":"452386057","properties":{"josm":"w452386057","name":"Княгині Ольги провулок","nameuk":"Крупської провулок"},"geometry":{"type":"Point","coordinates":[34.21512,48.47815]}},
{"type":"Feature","id":"452623799","properties":{"josm":"w452623799","name":"Степна  вулиця","nameuk":"Нова вулиця"},"geometry":{"type":"Point","coordinates":[34.3611,48.55323]}},
{"type":"Feature","id":"454225989","properties":{"josm":"w454225989","name":"1-й Герцена провулок","nameuk":"1-ий Герцена провулок"},"geometry":{"type":"Point","coordinates":[29.23213,50.75789]}},
{"type":"Feature","id":"454717766","properties":{"josm":"w454717766","name":"переулок запорожский","nameuk":"Запорізька вулиця"},"geometry":{"type":"Point","coordinates":[37.79766,48.99928]}},
{"type":"Feature","id":"455139853","properties":{"josm":"w455139853","name":"Новопомерчанская улица","nameuk":"Новопомерчанська вулиця"},"geometry":{"type":"Point","coordinates":[36.26683,50.05836]}},
{"type":"Feature","id":"455364614","properties":{"josm":"w455364614","name":"Харьковская улица","nameuk":"Харківська вулиця"},"geometry":{"type":"Point","coordinates":[35.31259,50.03788]}},
{"type":"Feature","id":"463827610","properties":{"josm":"w463827610","name":"Советская улица","nameuk":"Радянська вулиця"},"geometry":{"type":"Point","coordinates":[35.62674,49.92418]}},
{"type":"Feature","id":"465938054","properties":{"josm":"w465938054","name":"Елены Телиги переулок","nameuk":"Олени Теліги провулок"},"geometry":{"type":"Point","coordinates":[37.25375,49.1821]}},
{"type":"Feature","id":"474700479","properties":{"josm":"w474700479","name":"Курчатова провулок-Курчатова вулиця","nameuk":"Курчатова провулок-КУрчатова вулиця"},"geometry":{"type":"Point","coordinates":[25.72447,50.12082]}},
{"type":"Feature","id":"484720587","properties":{"josm":"w484720587","name":"Зелёный переулок","nameuk":"Зелений провулок"},"geometry":{"type":"Point","coordinates":[36.00775,49.88867]}},
{"type":"Feature","id":"484985736","properties":{"josm":"w484985736","name":"Измаильская улица","nameuk":"Ізмаїльська вулиця"},"geometry":{"type":"Point","coordinates":[30.70089,46.37521]}},
{"type":"Feature","id":"489335300","properties":{"josm":"w489335300","name":"Стара Озерянка вулиця","nameuk":"Аральська вулиця"},"geometry":{"type":"Point","coordinates":[36.34184,50.03789]}},
{"type":"Feature","id":"489335304","properties":{"josm":"w489335304","name":"Стара Озерянка вулиця","nameuk":"Аральська вулиця"},"geometry":{"type":"Point","coordinates":[36.33688,50.04103]}},
{"type":"Feature","id":"491439702","properties":{"josm":"w491439702","name":"Стефарика вулиця","nameuk":"Стефаника вулиця"},"geometry":{"type":"Point","coordinates":[25.36448,48.70015]}},
{"type":"Feature","id":"491655060","properties":{"josm":"w491655060","name":"Стефарика вулиця","nameuk":"Стефаника вулиця"},"geometry":{"type":"Point","coordinates":[25.36391,48.70082]}},
{"type":"Feature","id":"495636615","properties":{"josm":"w495636615","name":"Южная улица","nameuk":"Південна вулиця"},"geometry":{"type":"Point","coordinates":[35.65824,47.36597]}},
{"type":"Feature","id":"496691179","properties":{"josm":"w496691179","name":"Школьный переулок","nameuk":"Шкільний провулок"},"geometry":{"type":"Point","coordinates":[37.59763,49.69535]}},
{"type":"Feature","id":"499023081","properties":{"josm":"w499023081","name":"Мінський проспект","nameuk":"Мінське шосе"},"geometry":{"type":"Point","coordinates":[30.4516,50.52449]}},
{"type":"Feature","id":"503343586","properties":{"josm":"w503343586","name":"Юрія Паращука вулиця","nameuk":"Івана Минайленка вулиця"},"geometry":{"type":"Point","coordinates":[36.18968,49.97485]}},
{"type":"Feature","id":"503343588","properties":{"josm":"w503343588","name":"Юрія Паращука вулиця","nameuk":"Івана Минайленка вулиця"},"geometry":{"type":"Point","coordinates":[36.18753,49.97615]}},
{"type":"Feature","id":"516908179","properties":{"josm":"w516908179","name":"Січовий Стрільців вулиця","nameuk":"Січових Стрільців вулиця"},"geometry":{"type":"Point","coordinates":[24.50113,49.13038]}},
{"type":"Feature","id":"517530509","properties":{"josm":"w517530509","name":"вулиця Фрідріха Енгельса","nameuk":"Фрідріха Енгельса вулиця"},"geometry":{"type":"Point","coordinates":[37.77932,48.39062]}},
{"type":"Feature","id":"521711845","properties":{"josm":"w521711845","name":"Юності вулиця","nameuk":"Юност вулиця"},"geometry":{"type":"Point","coordinates":[37.83566,48.3774]}},
{"type":"Feature","id":"537852484","properties":{"josm":"w537852484","name":"Сортировочная","nameuk":"Сортувальна"},"geometry":{"type":"Point","coordinates":[30.75459,46.55053]}},
{"type":"Feature","id":"537852486","properties":{"josm":"w537852486","name":"Сортировочная","nameuk":"Сортувальна"},"geometry":{"type":"Point","coordinates":[30.7563,46.55125]}},
{"type":"Feature","id":"540005572","properties":{"josm":"w540005572","name":"9 Травня вулиця","nameuk":"secondary"},"geometry":{"type":"Point","coordinates":[38.79048,48.42825]}},
{"type":"Feature","id":"552358450","properties":{"josm":"w552358450","name":"Набережна вулиця","nameuk":"Леніна вулиця"},"geometry":{"type":"Point","coordinates":[33.79037,47.18906]}},
{"type":"Feature","id":"559744576","properties":{"josm":"w559744576","name":"1-й Матеріальний провулок","nameuk":"Східчастий провулок"},"geometry":{"type":"Point","coordinates":[30.70815,46.49752]}},
{"type":"Feature"}
]}
